gui_paths_subject3_walking1_full_v3
version=1
nRows=125
nColumns=56
inDegrees=no
endheader
time	pelvis_tilt	pelvis_list	pelvis_rotation	pelvis_tx	pelvis_ty	pelvis_tz	hip_flexion_r	hip_adduction_r	hip_rotation_r	knee_angle_r	ankle_angle_r	subtalar_angle_r	mtp_angle_r	hip_flexion_l	hip_adduction_l	hip_rotation_l	knee_angle_l	ankle_angle_l	subtalar_angle_l	mtp_angle_l	lumbar_extension	lumbar_bending	lumbar_rotation	arm_flex_r	arm_add_r	arm_rot_r	elbow_flex_r	pro_sup_r	wrist_flex_r	wrist_dev_r	arm_flex_l	arm_add_l	arm_rot_l	elbow_flex_l	pro_sup_l	wrist_flex_l	wrist_dev_l	knee_angle_r_beta	knee_angle_l_beta	/forceset/M0_r/activation	/forceset/M1_r/activation	/forceset/M2_r/activation	/forceset/M3_r/activation	/forceset/M4_r/activation	/forceset/M5_r/activation	/forceset/M6_r/activation	/forceset/M7_r/activation	/forceset/M0_l/activation	/forceset/M1_l/activation	/forceset/M2_l/activation	/forceset/M3_l/activation	/forceset/M4_l/activation	/forceset/M5_l/activation	/forceset/M6_l/activation	/forceset/M7_l/activation
0.03000000	0.04315046	-0.00622164	-0.02752359	-0.08777188	0.89312260	-0.28165137	0.38686688	0.03270810	-0.19388119	0.13407153	0.07365959	0.01861229	-0.00040485	-0.39752550	0.05020229	-0.11123904	0.14287338	0.30817769	0.02034670	-0.00088755	-0.16878258	0.04959822	-0.27978864	-0.16023107	-0.25045295	0.03206789	0.29408870	1.35474797	-0.00009351	0.00046255	0.03480918	-0.29781892	-0.30888887	1.06557114	1.48138163	-0.00013359	0.00030875	0.13407153	0.14287338	0.53816972	0.18726216	0.00004267	0.07147302	0.22559793	0.08484082	0.00003618	0.01580452	0.09009751	0.05920107	0.00000000	0.00000000	0.00000000	0.00000000	0.15257958	0.35868025
0.04000000	0.04531312	-0.02196287	-0.02446997	-0.07126158	0.89699613	-0.28074835	0.38166850	0.04894320	-0.20932312	0.15306147	0.04837396	0.01861229	-0.00040485	-0.40593166	0.02908539	-0.12526874	0.16513073	0.30253003	0.02034670	-0.00088755	-0.16748845	0.06808768	-0.27838697	-0.16072278	-0.25339574	0.02977879	0.29137650	1.35416937	-0.00009351	0.00046255	0.02764183	-0.29227891	-0.30720439	1.07180759	1.48138395	-0.00013359	0.00030875	0.15306147	0.16513073	0.62790446	0.20392792	0.00000160	0.09145509	0.27843755	0.01442031	0.00001052	0.00106904	0.13534478	0.27684079	0.00000000	0.00000000	0.00000000	0.00000000	0.28205371	0.62958947
0.05000000	0.04835077	-0.04004577	-0.02127844	-0.05476636	0.90041808	-0.27974127	0.37365889	0.06779387	-0.22220168	0.16970129	0.01863378	0.01861229	-0.00040485	-0.41249637	0.00421692	-0.14276430	0.19331780	0.29386570	0.02034670	-0.00088755	-0.16692341	0.08895612	-0.27616712	-0.16052259	-0.25607945	0.02673837	0.28963171	1.35326078	-0.00009351	0.00046255	0.01992633	-0.28573371	-0.30509455	1.07566595	1.48138626	-0.00013359	0.00030875	0.16970129	0.19331780	0.66006173	0.17109152	0.00000165	0.10338715	0.30641568	0.00000522	0.00001650	0.03219092	0.17668463	0.54106349	0.00000000	0.00000000	0.00000000	0.00000000	0.39748552	0.86986037
0.06000000	0.05199387	-0.05967925	-0.01829479	-0.03841420	0.90343978	-0.27861337	0.36406884	0.08841633	-0.23228144	0.18554620	-0.01066639	0.01861229	-0.00040485	-0.41595648	-0.02367349	-0.16302889	0.22822129	0.28109508	0.02034670	-0.00088755	-0.16699168	0.11126024	-0.27282478	-0.15950821	-0.25830507	0.02269950	0.28918762	1.35194224	-0.00009351	0.00046255	0.01187543	-0.27831075	-0.30262179	1.07664764	1.48138857	-0.00013359	0.00030875	0.18554620	0.22822129	0.63784365	0.09166952	0.00000078	0.10720202	0.31653986	0.00000088	0.00000181	0.07761643	0.22528526	0.78646080	0.04302937	0.00000000	0.00000000	0.00000000	0.46299593	1.00000000
0.07000000	0.05673277	-0.08043711	-0.01560872	-0.02227420	0.90616302	-0.27738147	0.35295090	0.11023615	-0.23997300	0.20226500	-0.03469250	0.01861229	-0.00040485	-0.41671374	-0.05411760	-0.18401007	0.26980653	0.26307611	0.02034670	-0.00088755	-0.16845109	0.13453141	-0.26818067	-0.15754915	-0.26003086	0.01768257	0.29011684	1.35026544	-0.00009351	0.00046255	0.00378865	-0.27004505	-0.29989436	1.07481274	1.48139088	-0.00013359	0.00030875	0.20226500	0.26980653	0.57757118	0.00000046	0.00000038	0.11303594	0.29525762	0.07758227	0.00000090	0.19989675	0.28920257	0.98745645	0.13532301	0.00000000	0.00000000	0.00000000	0.46726890	1.00000000
0.08000000	0.06250936	-0.10169599	-0.01320662	-0.00640217	0.90863772	-0.27605308	0.34088038	0.13257207	-0.24523748	0.22123997	-0.04989893	0.01861229	-0.00040485	-0.41442546	-0.08659806	-0.20387806	0.31848822	0.23890956	0.02034670	-0.00088755	-0.17133897	0.15807984	-0.26200154	-0.15484588	-0.26115859	0.01147024	0.29246622	1.34833051	-0.00009351	0.00046255	-0.00405616	-0.26108754	-0.29669574	1.07020631	1.48139320	-0.00013359	0.00030875	0.22123997	0.31848822	0.53771896	0.00000008	0.00000009	0.14763876	0.22082347	0.34461190	0.00000015	0.52728636	0.37267967	1.00000000	0.33462765	0.00000000	0.00000000	0.00000000	0.36056276	0.74280609
0.09000000	0.06882874	-0.12340070	-0.01084679	0.00915834	0.91087925	-0.27462741	0.32855575	0.15550244	-0.24810821	0.24257150	-0.05519663	0.01861229	-0.00040485	-0.40784289	-0.12155483	-0.22199340	0.37530606	0.20790329	0.02034670	-0.00088755	-0.17503569	0.18183887	-0.25355079	-0.15235679	-0.26152645	0.00251272	0.29682988	1.34608238	-0.00009351	0.00046255	-0.01093154	-0.25166749	-0.29176321	1.06224653	1.48139551	-0.00013359	0.00030875	0.24257150	0.37530606	0.48438572	0.00000012	0.00000016	0.18430130	0.13895880	0.59380705	0.00000021	0.84710821	0.43551300	1.00000000	0.46022820	0.00000000	0.00000000	0.00000000	0.25537208	0.49329721
0.10000000	0.07431582	-0.14422033	-0.00873860	0.02436325	0.91282633	-0.27309198	0.31719471	0.17797793	-0.24765407	0.26515645	-0.05172315	0.01861229	-0.00040485	-0.39507099	-0.15734265	-0.23550287	0.44006146	0.16977338	0.02034670	-0.00088755	-0.17801816	0.20428636	-0.24284477	-0.15053238	-0.26088430	-0.00960242	0.30340445	1.34372793	-0.00009351	0.00046255	-0.01677509	-0.24220887	-0.28471044	1.05078575	1.48139782	-0.00013359	0.00030875	0.26515645	0.44006146	0.43545632	0.00000000	0.00000000	0.21968555	0.08890978	0.64668300	0.00000000	1.00000000	0.42887130	1.00000000	0.43254171	0.00000000	0.00000000	0.00000000	0.20673221	0.39618723
0.11000000	0.07672645	-0.16153069	-0.00759636	0.03915676	0.91434330	-0.27142418	0.30883016	0.19757853	-0.24267794	0.28748257	-0.04184667	0.01861229	-0.00040485	-0.37356971	-0.19009288	-0.23987692	0.51127866	0.12508619	0.02034670	-0.00088755	-0.17794386	0.22247193	-0.23104283	-0.14893946	-0.25902432	-0.02344937	0.31179495	1.34194425	-0.00009351	0.00046255	-0.02244949	-0.23323033	-0.27655484	1.03639879	1.48140013	-0.00013359	0.00030875	0.28748257	0.51127866	0.39431666	0.00000000	0.00000000	0.25324946	0.06874849	0.53116787	0.00000000	1.00000000	0.35161070	1.00000000	0.26297573	0.00000000	0.00000000	0.00000000	0.22654946	0.49879796
0.12000000	0.07488987	-0.17464252	-0.00737470	0.05351743	0.91537757	-0.26965112	0.30415168	0.21357415	-0.23440692	0.30774674	-0.02852045	0.01861229	-0.00040485	-0.34185481	-0.21845990	-0.23405813	0.58783551	0.07518753	0.02034670	-0.00088755	-0.17349216	0.23570598	-0.21905356	-0.14747900	-0.25606064	-0.03805599	0.32199114	1.34131947	-0.00009351	0.00046255	-0.02820446	-0.22496544	-0.26759886	1.01934496	1.48140245	-0.00013359	0.00030875	0.30774674	0.58783551	0.35374334	0.00000000	0.00000000	0.28752247	0.04387252	0.43418069	0.00000000	1.00000000	0.23166571	1.00000000	0.01358499	0.00000000	0.00000000	0.00000000	0.29859099	0.76915657
0.13000000	0.06976850	-0.18447303	-0.00711401	0.06746324	0.91603366	-0.26786830	0.30133077	0.22661961	-0.22580322	0.32394148	-0.01417778	0.01861229	-0.00040485	-0.30119093	-0.24306586	-0.21951382	0.66795148	0.02208986	0.02034670	-0.00088755	-0.16556075	0.24513011	-0.20775687	-0.14591152	-0.25241964	-0.05157550	0.33381336	1.34204007	-0.00009351	0.00046255	-0.03385272	-0.21742653	-0.25802579	0.99998172	1.48140476	-0.00013359	0.00030875	0.32394148	0.66795148	0.31860878	0.00000000	0.00000000	0.32199569	0.01614978	0.35704927	0.00000000	1.00000000	0.20840192	0.78837717	0.00000000	0.00000000	0.00000000	0.00000000	0.24836726	0.70485965
0.14000000	0.06293413	-0.19166841	-0.00589895	0.08102612	0.91645307	-0.26617827	0.29811862	0.23699056	-0.21933871	0.33471850	0.00001304	0.01861229	-0.00040485	-0.25418797	-0.26390200	-0.19743217	0.74865346	-0.03113497	0.02034670	-0.00088755	-0.15576809	0.25156573	-0.19812426	-0.14369693	-0.24853817	-0.06187751	0.34696258	1.34383892	-0.00009351	0.00046255	-0.03940170	-0.21064217	-0.24839974	0.97891233	1.48140706	-0.00013359	0.00030875	0.33471850	0.74865346	0.32541203	0.00000000	0.03281842	0.35581167	0.00000000	0.31208055	0.00000000	1.00000000	0.17684779	0.56141702	0.00000000	0.00000000	0.00000000	0.00000000	0.20774756	0.64844862
0.15000000	0.05538808	-0.19677720	-0.00324680	0.09424158	0.91672923	-0.26465742	0.29342840	0.24488648	-0.21649234	0.33998812	0.01375457	0.01861229	-0.00040485	-0.20299892	-0.28090685	-0.16945395	0.82729368	-0.08012399	0.02034670	-0.00088755	-0.14514521	0.25572703	-0.19025392	-0.14092325	-0.24468180	-0.06936630	0.36192666	1.34616996	-0.00009351	0.00046255	-0.04457605	-0.20463248	-0.23845335	0.95618748	1.48140937	-0.00013359	0.00030875	0.33998812	0.82729368	0.39334968	0.00000000	0.12010632	0.38975906	0.00000000	0.31382760	0.00000000	1.00000000	0.15079287	0.41679581	0.00000000	0.00000000	0.00000000	0.00000000	0.18974289	0.64056884
0.16000000	0.04814822	-0.20032793	0.00101345	0.10714555	0.91695736	-0.26335372	0.28645738	0.25064317	-0.21768821	0.34047132	0.02705910	0.01861229	-0.00040485	-0.14983607	-0.29420483	-0.13771917	0.90184929	-0.12001386	0.02034670	-0.00088755	-0.13480425	0.25827547	-0.18374134	-0.13779197	-0.24106018	-0.07495402	0.37916967	1.34864776	-0.00009351	0.00046255	-0.04900782	-0.19936623	-0.22770335	0.93169318	1.48141169	-0.00013359	0.00030875	0.34047132	0.90184929	0.47346958	0.00000000	0.20729924	0.42320729	0.00000000	0.33102693	0.00000000	1.00000000	0.13249496	0.36589611	0.00000000	0.00000000	0.00000000	0.00000000	0.18661422	0.66006681
0.17000000	0.04241082	-0.20269630	0.00681008	0.11977447	0.91724906	-0.26227991	0.27625551	0.25466753	-0.22238439	0.33711341	0.03994172	0.01861229	-0.00040485	-0.09712344	-0.30397347	-0.10427256	0.97074930	-0.14683317	0.02034670	-0.00088755	-0.12612728	0.25965891	-0.17819316	-0.13415125	-0.23791422	-0.07836809	0.39854026	1.35107886	-0.00009351	0.00046255	-0.05256856	-0.19478432	-0.21606917	0.90555993	1.48141400	-0.00013359	0.00030875	0.33711341	0.97074930	0.56294150	0.00000000	0.29442994	0.45543176	0.00000000	0.36300001	0.00000000	1.00000000	0.12143349	0.39228043	0.00000000	0.00000000	0.00000000	0.00000000	0.18895029	0.68046500
0.18000000	0.03901810	-0.20416243	0.01377636	0.13216298	0.91768946	-0.26140880	0.26224399	0.25747908	-0.22935128	0.33087724	0.05227736	0.01861229	-0.00040485	-0.04674240	-0.31060845	-0.07106382	1.03305719	-0.15866419	0.02034670	-0.00088755	-0.12015301	0.26019573	-0.17305561	-0.12981684	-0.23545604	-0.07917355	0.41967157	1.35329490	-0.00009351	0.00046255	-0.05526201	-0.19080807	-0.20359373	0.87799568	1.48141629	-0.00013359	0.00030875	0.33087724	1.03305719	0.65785743	0.00000000	0.38269011	0.48522672	0.00000000	0.41104125	0.00000000	1.00000000	0.11441331	0.45793782	0.00000000	0.00000000	0.00000000	0.00000000	0.18893809	0.68047338
0.19000000	0.03846108	-0.20481815	0.02129605	0.14434264	0.91833573	-0.26067651	0.24411519	0.25954933	-0.23690677	0.32253362	0.06382602	0.01861229	-0.00040485	-0.00004187	-0.31455208	-0.03985036	1.08822983	-0.15621897	0.02034670	-0.00088755	-0.11757944	0.25995447	-0.16775997	-0.12451212	-0.23385981	-0.07669809	0.44195035	1.35508207	-0.00009351	0.00046255	-0.05727806	-0.18734313	-0.19069409	0.84942271	1.48141860	-0.00013359	0.00030875	0.32253362	1.08822983	0.75373171	0.00000000	0.47373965	0.51114546	0.00000000	0.47723208	0.00000000	1.00000000	0.10830944	0.52751713	0.00000000	0.00000000	0.00000000	0.00000000	0.18251959	0.65034563
0.20000000	0.04066331	-0.20462267	0.02863804	0.15633801	0.91919713	-0.25999986	0.22209775	0.26120568	-0.24338465	0.31263291	0.07434436	0.01861229	-0.00040485	0.04248199	-0.31623597	-0.01196532	1.13604024	-0.14247188	0.02034670	-0.00088755	-0.11848601	0.25881222	-0.16176073	-0.11805513	-0.23319791	-0.07064160	0.46476375	1.35616198	-0.00009351	0.00046255	-0.05889378	-0.18430167	-0.17795635	0.82036907	1.48142091	-0.00013359	0.00030875	0.31263291	1.13604024	0.84631834	0.00000000	0.56890139	0.53192523	0.00000000	0.56274790	0.00000000	1.00000000	0.10082594	0.57317992	0.00000000	0.00000000	0.00000000	0.00000000	0.16890683	0.59145897
0.21000000	0.04473693	-0.20351499	0.03506107	0.16816372	0.92021154	-0.25929381	0.19732849	0.26260476	-0.24751633	0.30165412	0.08370783	0.01861229	-0.00040485	0.08153582	-0.31610163	0.01177809	1.17666091	-0.12156295	0.02034670	-0.00088755	-0.12201546	0.25658823	-0.15449224	-0.11060525	-0.23337582	-0.06192052	0.48781233	1.35651040	-0.00009351	0.00046255	-0.06034476	-0.18159517	-0.16584331	0.79127601	1.48142321	-0.00013359	0.00030875	0.30165412	1.17666091	0.93244026	0.00000000	0.66856209	0.54690676	0.00000000	0.66637741	0.00000000	1.00000000	0.12782344	0.23686433	0.24674507	0.00000032	0.00000053	0.01857932	0.00000115	0.03761664
0.22000000	0.04964995	-0.20143831	0.03999589	0.17983688	0.92129718	-0.25849198	0.17104917	0.26373906	-0.24858144	0.28991848	0.09195467	0.01861229	-0.00040485	0.11812112	-0.31451752	0.03100714	1.21038464	-0.09762563	0.02034670	-0.00088755	-0.12708112	0.25309111	-0.14547609	-0.10251292	-0.23418986	-0.05212329	0.51102325	1.35622889	-0.00009351	0.00046255	-0.06181758	-0.17914616	-0.15467950	0.76253490	1.48142550	-0.00013359	0.00030875	0.28991848	1.21038464	1.00000000	0.00000000	0.76406696	0.55421732	0.00000000	0.77663445	0.00000000	1.00000000	0.14484739	0.27173051	0.25685712	0.00000015	0.00000044	0.12601599	0.00000025	0.09191195
0.23000000	0.05468486	-0.19836638	0.04316379	0.19138395	0.92238955	-0.25756440	0.14408609	0.26448213	-0.24647525	0.27757845	0.09926520	0.01861229	-0.00040485	0.15290506	-0.31174798	0.04573357	1.23744908	-0.07388813	0.02034670	-0.00088755	-0.13285519	0.24820111	-0.13427024	-0.09431854	-0.23536658	-0.04333264	0.53466631	1.35506300	-0.00009351	0.00046255	-0.06335753	-0.17691865	-0.14437955	0.73438821	1.48142780	-0.00013359	0.00030875	0.27757845	1.23744908	1.00000000	0.00000000	0.79390856	0.54277960	0.00000000	0.83287103	0.02337671	1.00000000	0.14714673	0.27640610	0.24658944	0.00000035	0.00000203	0.18967716	0.00000041	0.12057942
0.24000000	0.05926452	-0.19428275	0.04448240	0.20283156	0.92342905	-0.25650908	0.11716438	0.26459275	-0.24151486	0.26484739	0.10593393	0.01861229	-0.00040485	0.18641339	-0.30792663	0.05625083	1.25809524	-0.05230613	0.02034670	-0.00088755	-0.13860802	0.24186365	-0.12071705	-0.08649487	-0.23666124	-0.03736539	0.55901669	1.35307058	-0.00009351	0.00046255	-0.06508629	-0.17483330	-0.13500879	0.70711745	1.48143009	-0.00013359	0.00030875	0.26484739	1.25809524	1.00000000	0.00000000	0.82555456	0.52946493	0.00000000	0.89461732	0.04762362	1.00000000	0.13907479	0.25891428	0.22279648	0.00000019	0.00000210	0.21465506	0.00000019	0.12796176
0.25000000	0.06295230	-0.18919728	0.04403693	0.21420053	0.92436309	-0.25534333	0.09094236	0.26379212	-0.23429383	0.25203349	0.11227570	0.01861229	-0.00040485	0.21904099	-0.30308656	0.06304990	1.27254248	-0.03367667	0.02034670	-0.00088755	-0.14373732	0.23410431	-0.10522458	-0.07911879	-0.23797620	-0.03474555	0.58389578	1.35113353	-0.00009351	0.00046255	-0.06739231	-0.17273343	-0.12724532	0.68121301	1.48143238	-0.00013359	0.00030875	0.25203349	1.27254248	1.00000000	0.00000000	0.85667989	0.51585482	0.00000000	0.95564970	0.07127822	1.00000000	0.12545316	0.22950480	0.19235852	0.00000050	0.00002760	0.21056730	0.00000040	0.12063129
0.26000000	0.06556286	-0.18319979	0.04210491	0.22550570	0.92515655	-0.25410514	0.06583523	0.26188790	-0.22563955	0.23940636	0.11851706	0.01861229	-0.00040485	0.25094295	-0.29726088	0.06675991	1.28093731	-0.01793232	0.02034670	-0.00088755	-0.14790474	0.22509973	-0.08841706	-0.07211612	-0.23930223	-0.03534625	0.60903098	1.35002136	-0.00009351	0.00046255	-0.07062660	-0.17051422	-0.12158051	0.65701162	1.48143467	-0.00013359	0.00030875	0.23940636	1.28093731	0.92641216	0.00000004	0.80147408	0.48564434	0.00000002	0.93776333	0.11965197	0.99999991	0.11032416	0.19746751	0.16088042	0.00000026	0.00002003	0.18854703	0.00000024	0.10538464
0.27000000	0.06710827	-0.17642879	0.03903834	0.23675356	0.92579002	-0.25284041	0.04203685	0.25879954	-0.21634471	0.22717227	0.12477728	0.01861229	-0.00040485	0.28207501	-0.29050773	0.06798517	1.28335180	-0.00448891	0.02034670	-0.00088755	-0.15102295	0.21511748	-0.07082454	-0.06542942	-0.24064030	-0.03899372	0.63432110	1.34975654	-0.00009351	0.00046255	-0.07492359	-0.16817220	-0.11800073	0.63452316	1.48143694	-0.00013359	0.00030875	0.22717227	1.28335180	0.79914768	0.00000009	0.67710859	0.44403409	0.00000005	0.85823966	0.18617900	0.99999976	0.09685395	0.16951515	0.13254344	0.00000069	0.00004496	0.15861296	0.00000064	0.08760125
0.28000000	0.06765613	-0.16911609	0.03520004	0.24793969	0.92624846	-0.25158824	0.01967846	0.25463009	-0.20703221	0.21550599	0.13106434	0.01861229	-0.00040485	0.31239710	-0.28297962	0.06728743	1.27985831	0.00742262	0.02034670	-0.00088755	-0.15311585	0.20452279	-0.05318050	-0.05872127	-0.24207846	-0.04474851	0.65943824	1.35006142	-0.00009351	0.00046255	-0.08043478	-0.16569337	-0.11677530	0.61372505	1.48143919	-0.00013359	0.00030875	0.21550599	1.27985831	0.70995560	0.00000005	0.58688210	0.41310273	0.00000002	0.80769973	0.23947402	0.99999985	0.08671030	0.14928986	0.10950302	0.00000034	0.00000906	0.12865458	0.00000034	0.07119931
0.29000000	0.06728974	-0.16159758	0.03094900	0.25905349	0.92651777	-0.25037804	-0.00115300	0.24967825	-0.19816785	0.20453871	0.13731414	0.01861229	-0.00040485	0.34192117	-0.27495161	0.06520065	1.27056766	0.01849424	0.02034670	-0.00088755	-0.15425777	0.19377957	-0.03637716	-0.05142683	-0.24377719	-0.05104726	0.68379966	1.35077860	-0.00009351	0.00046255	-0.08731893	-0.16302995	-0.11850248	0.59460631	1.48144156	-0.00013359	0.00030875	0.20453871	1.27056766	0.65145238	0.00000011	0.52555424	0.39109127	0.00000006	0.78093123	0.28176441	0.99999965	0.08073922	0.13772891	0.09254350	0.00000083	0.00001571	0.10319347	0.00000082	0.05797182
0.30000000	0.06621535	-0.15406369	0.02649423	0.27009106	0.92659788	-0.24922862	-0.02062506	0.24416601	-0.18989819	0.19430935	0.14354984	0.01861229	-0.00040485	0.37039492	-0.26662415	0.06195987	1.25550386	0.02917224	0.02034670	-0.00088755	-0.15468884	0.18317368	-0.02062558	-0.04342754	-0.24573151	-0.05749716	0.70727889	1.35173770	-0.00009351	0.00046255	-0.09531283	-0.16023780	-0.12305108	0.57683389	1.48144382	-0.00013359	0.00030875	0.19430935	1.25550386	0.61672307	0.00000005	0.48859466	0.37608359	0.00000003	0.77404632	0.31519625	0.99999981	0.07848269	0.13367478	0.08068153	0.00000034	0.00000276	0.08384074	0.00000045	0.04839288
0.31000000	0.06477334	-0.14648602	0.02186379	0.28105936	0.92650508	-0.24814689	-0.03917778	0.23812638	-0.18210348	0.18476412	0.14991102	0.01861229	-0.00040485	0.39723152	-0.25807148	0.05743143	1.23456887	0.03958864	0.02034670	-0.00088755	-0.15481358	0.17272083	-0.00541975	-0.03509417	-0.24775981	-0.06493112	0.73024188	1.35266369	-0.00009351	0.00046255	-0.10380808	-0.15747113	-0.12961799	0.55991243	1.48144556	-0.00013359	0.00030875	0.18476412	1.23456887	0.60111193	0.00000011	0.47357290	0.36664012	0.00000006	0.78500006	0.34129841	0.99999966	0.07887664	0.13472502	0.07191656	0.00000075	0.00000585	0.06932022	0.00000098	0.04154193
0.32000000	0.06321307	-0.13903476	0.01714691	0.29196229	0.92624588	-0.24713658	-0.05711882	0.23181185	-0.17482969	0.17587161	0.15641750	0.01861229	-0.00040485	0.42208009	-0.24954415	0.05167031	1.20784378	0.04960531	0.02034670	-0.00088755	-0.15492576	0.16264376	0.00926974	-0.02641768	-0.24985339	-0.07307398	0.75262255	1.35343998	-0.00009351	0.00046255	-0.11254564	-0.15480530	-0.13779445	0.54376048	1.48144891	-0.00013359	0.00030875	0.17587161	1.20784378	0.60386221	0.00000004	0.48179885	0.36235949	0.00000002	0.81440751	0.36045925	0.99999986	0.08032430	0.13800734	0.06350172	0.00000029	0.00000153	0.05676141	0.00000051	0.03590201
0.33000000	0.06157687	-0.13211716	0.01252744	0.30280032	0.92580640	-0.24620212	-0.07446538	0.22572265	-0.16832129	0.16765096	0.16295086	0.01861229	-0.00040485	0.44501346	-0.24144421	0.04504907	1.17568067	0.05897202	0.02034670	-0.00088755	-0.15506816	0.15342100	0.02287613	-0.01696653	-0.25220621	-0.08043633	0.77387174	1.35419108	-0.00009351	0.00046255	-0.12169123	-0.15222791	-0.14749707	0.52867813	1.48145171	-0.00013359	0.00030875	0.16765096	1.17568067	0.62984081	0.00000008	0.52059710	0.36439739	0.00000004	0.86690618	0.37132964	0.99999979	0.08124595	0.14087476	0.05264861	0.00000063	0.00000327	0.04280580	0.00000111	0.02981833
0.34000000	0.05997044	-0.12564830	0.00794701	0.31359479	0.92518776	-0.24533383	-0.09145684	0.21981548	-0.16249228	0.15997625	0.16960851	0.01861229	-0.00040485	0.46570755	-0.23376741	0.03736406	1.13818650	0.06745371	0.02034670	-0.00088755	-0.15534017	0.14492047	0.03564577	-0.00695294	-0.25476376	-0.08708054	0.79405324	1.35497277	-0.00009351	0.00046255	-0.13114173	-0.14982030	-0.15814628	0.51480085	1.48144724	-0.00013359	0.00030875	0.15997625	1.13818650	0.69205555	0.00000002	0.60699783	0.37612393	0.00000001	0.95382079	0.36992486	0.99999994	0.08024996	0.14115609	0.03691190	0.00000025	0.00000106	0.02484400	0.00000056	0.02209268
0.35000000	0.05860629	-0.11913353	0.00317921	0.32437991	0.92440801	-0.24451266	-0.10856271	0.21358893	-0.15698722	0.15259640	0.17663167	0.01861229	-0.00040485	0.48346324	-0.22616371	0.02795227	1.09525888	0.07485342	0.02034670	-0.00088755	-0.15596848	0.13650603	0.04839472	0.00293349	-0.25726178	-0.09427931	0.81376481	1.35569813	-0.00009351	0.00046255	-0.14057200	-0.14774294	-0.16878403	0.50204709	1.48145967	-0.00013359	0.00030875	0.15259640	1.09525888	0.71879382	0.00000000	0.64898847	0.38016148	0.00000000	1.00000000	0.38141596	1.00000000	0.07671462	0.13781438	0.01499973	0.00000052	0.00000208	0.00275840	0.00000136	0.01274102
0.36000000	0.05748107	-0.11253419	-0.00174266	0.33517136	0.92345967	-0.24373517	-0.12584711	0.20702740	-0.15173465	0.14539790	0.18397268	0.01861229	-0.00040485	0.49823248	-0.21853198	0.01687590	1.04727439	0.08103463	0.02034670	-0.00088755	-0.15694773	0.12809788	0.06091835	0.01268002	-0.25970569	-0.10163664	0.83302328	1.35640975	-0.00009351	0.00046255	-0.15008012	-0.14604172	-0.17877691	0.49042889	1.48147696	-0.00013359	0.00030875	0.14539790	1.04727439	0.70618739	0.00000000	0.63892497	0.37564906	0.00000000	1.00000000	0.40759785	1.00000000	0.08081006	0.13090251	0.00000000	0.00000000	0.00218559	0.00000000	0.00000000	0.01145405
0.37000000	0.05659236	-0.10585347	-0.00670114	0.34598547	0.92233662	-0.24300471	-0.14332712	0.20014682	-0.14672722	0.13828064	0.19147159	0.01861229	-0.00040485	0.51005994	-0.21072419	0.00437358	0.99468971	0.08586084	0.02034670	-0.00088755	-0.15823769	0.11968173	0.07266224	0.02250580	-0.26217893	-0.10815047	0.85156761	1.35725214	-0.00009351	0.00046255	-0.15984955	-0.14471622	-0.18780602	0.47987964	1.48126236	-0.00013359	0.00030875	0.13828064	0.99468971	0.70179966	0.00000000	0.63663453	0.37457314	0.00000000	1.00000000	0.43259686	1.00000000	0.10622752	0.12691206	0.00000000	0.00000000	0.01422301	0.00000000	0.00000000	0.00291193
0.38000000	0.05620790	-0.09864336	-0.01172697	0.35685691	0.92106587	-0.24232193	-0.16143102	0.19245454	-0.14173781	0.13100748	0.19910431	0.01861229	-0.00040485	0.51839137	-0.20218988	-0.00974434	0.93758971	0.08923265	0.02034670	-0.00088755	-0.16006145	0.11072400	0.08371692	0.03217978	-0.26456028	-0.11399122	0.86949509	1.35830257	-0.00009351	0.00046255	-0.16968410	-0.14382560	-0.19554362	0.47002978	1.48045319	-0.00013359	0.00030875	0.13100748	0.93758971	0.70678198	0.00000000	0.64319803	0.37746425	0.00000000	1.00000000	0.45632873	1.00000000	0.14334061	0.13584776	0.00000000	0.00000000	0.03239731	0.00000000	0.00344390	0.00000000
0.39000000	0.05624838	-0.09103953	-0.01662096	0.36780233	0.91963861	-0.24171382	-0.18004068	0.18410567	-0.13680134	0.12357471	0.20667447	0.01861229	-0.00040485	0.52353464	-0.19267889	-0.02455408	0.87668620	0.09144926	0.02034670	-0.00088755	-0.16227971	0.10144471	0.09374198	0.04174267	-0.26690883	-0.11882916	0.88669256	1.35964635	-0.00009351	0.00046255	-0.17949270	-0.14327322	-0.20182405	0.46045917	1.47893468	-0.00013359	0.00030875	0.12357471	0.87668620	0.72107286	0.00000000	0.65867577	0.38446517	0.00000000	1.00000000	0.47892511	1.00000000	0.19207064	0.16008365	0.00000000	0.00000000	0.05739710	0.00000000	0.01106212	0.00000000
0.40000000	0.05613767	-0.08379101	-0.02099674	0.37882180	0.91800146	-0.24122682	-0.19829088	0.17593328	-0.13225957	0.11631270	0.21392075	0.01861229	-0.00040485	0.52678101	-0.18237394	-0.03812547	0.81325033	0.09313668	0.02034670	-0.00088755	-0.16422462	0.09283275	0.10200332	0.05148913	-0.26947525	-0.12175901	0.90278895	1.36137055	-0.00009351	0.00046255	-0.18938231	-0.14280558	-0.20681884	0.45085924	1.47693730	-0.00013359	0.00030875	0.11631270	0.81325033	0.23814321	0.00000000	0.00000000	0.26633199	0.00000000	0.50499604	0.67271874	1.00000000	0.25123565	0.20156288	0.00000000	0.00000000	0.08785930	0.00000000	0.02120603	0.00000000
0.41000000	0.05576355	-0.07691608	-0.02479803	0.38993923	0.91616037	-0.24088240	-0.21594181	0.16792015	-0.12825452	0.10950036	0.22096752	0.01861229	-0.00040485	0.52825998	-0.17106327	-0.04956356	0.74770457	0.09471783	0.02034670	-0.00088755	-0.16574210	0.08496672	0.10870308	0.06117858	-0.27224116	-0.12319975	0.91782754	1.36345053	-0.00009351	0.00046255	-0.19913593	-0.14235714	-0.21063072	0.44093201	1.47484003	-0.00013359	0.00030875	0.10950036	0.74770457	0.24853284	0.00000000	0.00000000	0.27518566	0.00000000	0.48719657	0.69979077	1.00000000	0.31922154	0.25783899	0.00000000	0.00000000	0.12286790	0.00000000	0.03357559	0.00000000
0.42000000	0.05555441	-0.06992074	-0.02819472	0.40119190	0.91417980	-0.24067996	-0.23341875	0.15944249	-0.12480254	0.10337873	0.22812003	0.01861229	-0.00040485	0.52705306	-0.15829592	-0.05873544	0.67993185	0.09645721	0.02034670	-0.00088755	-0.16730034	0.07726656	0.11454853	0.07036279	-0.27503687	-0.12415171	0.93206985	1.36577192	-0.00009351	0.00046255	-0.20836765	-0.14203805	-0.21302731	0.43047630	1.47299514	-0.00013359	0.00030875	0.10337873	0.67993185	0.25838082	0.00000000	0.00000000	0.28532425	0.00000000	0.46591361	0.72802130	1.00000000	0.39268716	0.32359228	0.00000000	0.00000000	0.16070078	0.00000000	0.04750374	0.00000000
0.43000000	0.05560581	-0.06279170	-0.03126454	0.41260764	0.91209326	-0.24061697	-0.25065525	0.15042376	-0.12207150	0.09839225	0.23552326	0.01861229	-0.00040485	0.52294418	-0.14416011	-0.06518171	0.61034590	0.09866788	0.02034670	-0.00088755	-0.16899581	0.06970600	0.11985466	0.07885504	-0.27786097	-0.12481378	0.94552703	1.36817598	-0.00009351	0.00046255	-0.21695217	-0.14187197	-0.21378615	0.41954627	1.47163220	-0.00013359	0.00030875	0.09839225	0.61034590	0.26581803	0.00000000	0.00000000	0.29581970	0.00000000	0.44321304	0.75738979	1.00000000	0.46640829	0.38913907	0.00000000	0.00000000	0.19869430	0.00000000	0.06181957	0.00000000
0.44000000	0.05619731	-0.05536038	-0.03420603	0.42422233	0.90995307	-0.24067561	-0.26782892	0.14059905	-0.12025626	0.09490433	0.24327168	0.01861229	-0.00040485	0.51546443	-0.12876111	-0.06899957	0.53931951	0.10124310	0.02034670	-0.00088755	-0.17108470	0.06203740	0.12498923	0.08645720	-0.28069388	-0.12529868	0.95820173	1.37061148	-0.00009351	0.00046255	-0.22479231	-0.14193408	-0.21246630	0.40825143	1.47088654	-0.00013359	0.00030875	0.09490433	0.53931951	0.26892011	0.00000000	0.00000000	0.30560911	0.00000000	0.42107500	0.78784371	1.00000000	0.52494726	0.42701042	0.00000001	0.00000000	0.22748323	0.01278869	0.07039980	0.00000002
0.45000000	0.05849677	-0.04675244	-0.03750705	0.43608714	0.90789112	-0.24081280	-0.28629654	0.12885590	-0.11943304	0.09289502	0.25142810	0.01861229	-0.00040485	0.50281812	-0.11167278	-0.07146689	0.46676318	0.10339340	0.02034670	-0.00088755	-0.17479242	0.05310954	0.13059292	0.09294242	-0.28334185	-0.12607129	0.97022981	1.37333080	-0.00009351	0.00046255	-0.23165648	-0.14245137	-0.20828125	0.39661836	1.47083745	-0.00013359	0.00030875	0.09289502	0.46676318	0.30957397	0.00000000	0.00000000	0.38360194	0.00000000	0.00000000	0.63115518	0.46080897	0.52026264	0.36992515	0.00000003	0.00000002	0.21495976	0.10241398	0.05020842	0.00000006
0.46000000	0.06305236	-0.03669874	-0.04161487	0.44823920	0.90597646	-0.24097729	-0.30672998	0.11478583	-0.11955011	0.09230521	0.25979480	0.01861229	-0.00040485	0.48447157	-0.09308934	-0.07390576	0.39351521	0.10433233	0.02034670	-0.00088755	-0.18065340	0.04245942	0.13692591	0.09832173	-0.28570858	-0.12707063	0.98149127	1.37665373	-0.00009351	0.00046255	-0.23764079	-0.14336293	-0.20152331	0.38495033	1.47135658	-0.00013359	0.00030875	0.09230521	0.39351521	0.29677663	0.00000000	0.00000000	0.38511151	0.00000000	0.00000000	0.66640066	0.46962686	0.56077602	0.37036000	0.00000001	0.00000000	0.23777929	0.08799438	0.06056375	0.00000002
0.47000000	0.06918660	-0.02585386	-0.04679252	0.46069908	0.90416446	-0.24112592	-0.32834726	0.09907036	-0.12053955	0.09322629	0.26799232	0.01861229	-0.00040485	0.46202477	-0.07400358	-0.07698829	0.32163747	0.10356582	0.02034670	-0.00088755	-0.18777786	0.03074114	0.14387407	0.10267464	-0.28786239	-0.12778338	0.99162005	1.38065269	-0.00009351	0.00046255	-0.24319761	-0.14427535	-0.19381162	0.37382945	1.47215488	-0.00013359	0.00030875	0.09322629	0.32163747	0.27708040	0.00000000	0.00000000	0.38372900	0.00000000	0.00000000	0.70072321	0.47379267	0.61657128	0.39583894	0.00000002	0.00000001	0.27483426	0.01136939	0.08657508	0.00000003
0.48000000	0.07651166	-0.01449628	-0.05327507	0.47349440	0.90243551	-0.24122487	-0.35075307	0.08196017	-0.12245521	0.09556722	0.27569815	0.01861229	-0.00040485	0.43671166	-0.05483856	-0.08118083	0.25319194	0.10066895	0.02034670	-0.00088755	-0.19553514	0.01818321	0.15149120	0.10589454	-0.28976063	-0.12818152	1.00042699	1.38519089	-0.00009351	0.00046255	-0.24861254	-0.14498901	-0.18640487	0.36362190	1.47313565	-0.00013359	0.00030875	0.09556722	0.25319194	0.24207781	0.00000000	0.00000000	0.22265692	0.16167804	0.00000000	1.00000000	0.79263942	0.61049334	0.34319307	0.00000000	0.00000000	0.27207267	0.00000001	0.08823611	0.00000000
0.49000000	0.08430067	-0.00310696	-0.06085684	0.48662189	0.90073624	-0.24126149	-0.37320137	0.06410822	-0.12524032	0.09913558	0.28241774	0.01861229	-0.00040485	0.41063318	-0.03617568	-0.08673895	0.19128616	0.09634926	0.02034670	-0.00088755	-0.20304455	0.00531679	0.15958587	0.10789591	-0.29129827	-0.12837225	1.00776537	1.38973048	-0.00009351	0.00046255	-0.25407045	-0.14542314	-0.18021588	0.35456598	1.47427872	-0.00013359	0.00030875	0.09913558	0.19128616	0.21201326	0.00000000	0.00000000	0.23445173	0.14193917	0.00000000	1.00000000	0.75525771	0.56463850	0.26003703	0.00000000	0.00000000	0.24462971	0.00000003	0.07480013	0.00000000
0.50000000	0.09069629	0.00706929	-0.06876294	0.50003361	0.89891820	-0.24125098	-0.39360021	0.04727047	-0.12866005	0.10391896	0.28746452	0.01861229	-0.00040485	0.38781909	-0.01943330	-0.09349384	0.14026150	0.09267602	0.02034670	-0.00088755	-0.20833087	-0.00631669	0.16749410	0.10870366	-0.29244869	-0.12810038	1.01331015	1.39333563	-0.00009351	0.00046255	-0.25985087	-0.14540304	-0.17636376	0.34698506	1.47531153	-0.00013359	0.00030875	0.10391896	0.14026150	0.17823433	0.00000000	0.00000000	0.24196203	0.12360123	0.00000000	1.00000000	0.72071971	0.55008758	0.22247817	0.00000000	0.00000000	0.24003389	0.00000000	0.09051579	0.00000000
0.51000000	0.09528809	0.01607610	-0.07666507	0.51372828	0.89697149	-0.24119796	-0.41151354	0.03157761	-0.13288618	0.10980126	0.29056274	0.01861229	-0.00040485	0.36940729	-0.00460596	-0.10116241	0.10191990	0.09061779	0.02034670	-0.00088755	-0.21089731	-0.01672417	0.17500907	0.10820402	-0.29303091	-0.12745211	1.01691906	1.39562044	-0.00009351	0.00046255	-0.26596383	-0.14510529	-0.17485983	0.34090930	1.47606341	-0.00013359	0.00030875	0.10980126	0.10191990	0.14252949	0.00000000	0.00000000	0.24519434	0.10698115	0.00000000	1.00000000	0.69153436	0.36514467	0.05629769	0.00000082	0.00000028	0.11658675	0.05635976	0.00000038	0.02981023
0.52000000	0.09958532	0.02538203	-0.08483974	0.52775146	0.89506183	-0.24108470	-0.42874410	0.01530498	-0.13848364	0.11641401	0.29179215	0.01861229	-0.00040485	0.35307184	0.00992065	-0.10971055	0.07521070	0.08944368	0.02034670	-0.00088755	-0.21224885	-0.02769485	0.18234017	0.10630131	-0.29268201	-0.12685132	1.01866947	1.39707409	-0.00009351	0.00046255	-0.27216937	-0.14502380	-0.17471875	0.33611082	1.47675106	-0.00013359	0.00030875	0.11641401	0.07521070	0.10614573	0.00000000	0.00000000	0.24402384	0.09233520	0.00000000	1.00000000	0.66989138	0.35421526	0.00749920	0.00000000	0.00000000	0.10564016	0.31447036	0.00000000	0.00000000
0.53000000	0.10414696	0.03559100	-0.09322922	0.54210204	0.89327321	-0.24091336	-0.44597529	-0.00216679	-0.14569986	0.12352955	0.29101618	0.01861229	-0.00040485	0.33819214	0.02483710	-0.11938667	0.05972956	0.08855774	0.02034670	-0.00088755	-0.21297408	-0.03994560	0.18916743	0.10321443	-0.29118973	-0.12619968	1.01842114	1.39813797	-0.00009351	0.00046255	-0.27846358	-0.14531797	-0.17583722	0.33260299	1.47758571	-0.00013359	0.00030875	0.12352955	0.05972956	0.06914159	0.00000000	0.00000000	0.23803156	0.07966175	0.00000000	1.00000000	0.65742047	0.33956824	0.05504039	0.00000000	0.00000000	0.10478190	0.14608958	0.00000000	0.00000000
0.54000000	0.10820523	0.04635132	-0.10142853	0.55674353	0.89156586	-0.24071280	-0.46225878	-0.02025352	-0.15443742	0.13126916	0.28803675	0.01861229	-0.00040485	0.32606141	0.03980726	-0.13025853	0.05531446	0.08722205	0.02034670	-0.00088755	-0.21229412	-0.05293955	0.19488024	0.09923590	-0.28857694	-0.12502195	1.01585547	1.39882606	-0.00009351	0.00046255	-0.28504244	-0.14578912	-0.17893563	0.33055279	1.47854653	-0.00013359	0.00030875	0.13126916	0.05531446	0.02975670	0.00000000	0.00000000	0.22634133	0.06849114	0.00000000	1.00000000	0.65503314	0.32904252	0.04367871	0.00000000	0.00000000	0.09928954	0.21801753	0.00000000	0.00000000
0.55000000	0.11112907	0.05749965	-0.10914320	0.57165166	0.88992014	-0.24052233	-0.47671871	-0.03865828	-0.16466881	0.14000508	0.28292277	0.01861229	-0.00040485	0.31714856	0.05475517	-0.14169005	0.06003611	0.08340143	0.02034670	-0.00088755	-0.20958006	-0.06631451	0.19923270	0.09442795	-0.28495004	-0.12316014	1.01084514	1.39908629	-0.00009351	0.00046255	-0.29192685	-0.14627207	-0.18434675	0.32993065	1.47952628	-0.00013359	0.00030875	0.14000508	0.06003611	0.00000000	0.00000000	0.00910847	0.20845123	0.06332955	0.00000000	1.00000000	0.66182561	0.32341491	0.06234328	0.00000000	0.00000000	0.10301016	0.17510898	0.00000000	0.00000000
0.56000000	0.11286751	0.06923810	-0.11623941	0.58681065	0.88836173	-0.24037950	-0.48914028	-0.05760253	-0.17651640	0.15023969	0.27583836	0.01861229	-0.00040485	0.31077538	0.07007442	-0.15255508	0.07067353	0.07441182	0.02034670	-0.00088755	-0.20486297	-0.08016690	0.20236763	0.08863433	-0.28041861	-0.12095325	1.00358536	1.39894469	-0.00009351	0.00046255	-0.29883307	-0.14675508	-0.19174529	0.33047261	1.48041159	-0.00013359	0.00030875	0.15023969	0.07067353	0.00000000	0.00000000	0.08801732	0.17543486	0.07653695	0.00000000	1.00000000	0.65753515	0.31809129	0.06022942	0.00000000	0.00000000	0.10894231	0.16197809	0.00000000	0.00000000
0.57000000	0.11387548	0.08203643	-0.12271120	0.60217173	0.88696287	-0.24031548	-0.49946936	-0.07770544	-0.19020852	0.16259023	0.26682521	0.01861229	-0.00040485	0.30567184	0.08648151	-0.16195873	0.08389961	0.05822120	0.02034670	-0.00088755	-0.19877220	-0.09497042	0.20465739	0.08160132	-0.27506514	-0.11910475	0.99451198	1.39848773	-0.00009351	0.00046255	-0.30519727	-0.14735852	-0.20033747	0.33175788	1.48107667	-0.00013359	0.00030875	0.16259023	0.08389961	0.00000000	0.00000000	0.19396843	0.12819992	0.09571796	0.00000000	1.00000000	0.65132729	0.33021749	0.07996653	0.00000820	0.00910525	0.12072211	0.11363419	0.00000825	0.00021020
0.58000000	0.11448182	0.09631571	-0.12833859	0.61760921	0.88580251	-0.24036402	-0.50673309	-0.09946969	-0.20622095	0.17804822	0.25584959	0.01861229	-0.00040485	0.30111135	0.10453551	-0.16957592	0.09747700	0.03443863	0.02034670	-0.00088755	-0.19197314	-0.11117018	0.20631004	0.07316182	-0.26890423	-0.11840592	0.98408220	1.39788022	-0.00009351	0.00046255	-0.31027198	-0.14828845	-0.20921495	0.33334948	1.48143443	-0.00013359	0.00030875	0.17804822	0.09747700	0.00000000	0.00000000	0.33647366	0.06315701	0.12320281	0.00000000	1.00000000	0.63614110	0.34163936	0.09591779	0.00000536	0.02348307	0.12851015	0.07537454	0.00000288	0.02004312
0.59000000	0.11450626	0.11214208	-0.13249544	0.63300387	0.88490427	-0.24055858	-0.50992008	-0.12282571	-0.22503282	0.19781900	0.24273480	0.01861229	-0.00040485	0.29750810	0.12421339	-0.17554642	0.11102108	0.00509436	0.02034670	-0.00088755	-0.18472026	-0.12879945	0.20705994	0.06333229	-0.26184935	-0.11940755	0.97256249	1.39733509	-0.00009351	0.00046255	-0.31339694	-0.14976818	-0.21764579	0.33491634	1.48151614	-0.00013359	0.00030875	0.19781900	0.11102108	0.00000000	0.00000000	0.51369567	0.00000000	0.13987040	0.00000000	0.96566319	0.56253799	0.32971749	0.07021597	0.00000900	0.03241564	0.13698869	0.01899696	0.00000811	0.02238453
0.60000000	0.11420303	0.12943156	-0.13483784	0.64836090	0.88427975	-0.24089347	-0.51021405	-0.14762754	-0.24613872	0.22244255	0.22679508	0.01861229	-0.00040485	0.29489484	0.14525050	-0.18042253	0.12532864	-0.02536685	0.02034670	-0.00088755	-0.17754963	-0.14781909	0.20656818	0.05224890	-0.25377913	-0.12225664	0.96003272	1.39698114	-0.00009351	0.00046255	-0.31425165	-0.15195381	-0.22495286	0.33620853	1.48140697	-0.00013359	0.00030875	0.22244255	0.12532864	0.00000000	0.00000000	0.71786463	0.00000000	0.07063433	0.00000000	0.76971864	0.25193223	0.28421664	0.00000009	0.00000010	0.03762781	0.12595435	0.03945158	0.00000047	0.08002038
0.61000000	0.11467845	0.14821628	-0.13571217	0.66373583	0.88399052	-0.24131919	-0.51005149	-0.17417506	-0.26821587	0.25185464	0.20687859	0.01861229	-0.00040485	0.29215592	0.16758570	-0.18503081	0.14137944	-0.05170152	0.02034670	-0.00088755	-0.17166273	-0.16846960	0.20462638	0.04025185	-0.24464834	-0.12653919	0.94639519	1.39680249	-0.00009351	0.00046255	-0.31289979	-0.15482515	-0.23080872	0.33722372	1.48115708	-0.00013359	0.00030875	0.25185464	0.14137944	0.00000000	0.71685743	0.38925889	0.00000000	0.08544256	0.00000000	1.00000000	0.92867790	0.24029727	0.00000004	0.00000005	0.07425901	0.00213502	0.57833786	0.00000020	0.60736344
0.62000000	0.11678678	0.16865539	-0.13557291	0.67912114	0.88409633	-0.24179459	-0.51033681	-0.20308153	-0.29068234	0.28649921	0.18186128	0.01861229	-0.00040485	0.28841169	0.19139553	-0.18995286	0.15997140	-0.06997866	0.02034670	-0.00088755	-0.16792827	-0.19112120	0.20067450	0.02797113	-0.23449931	-0.13109893	0.93122686	1.39681592	-0.00009351	0.00046255	-0.30982565	-0.15814468	-0.23604698	0.33853186	1.48087592	-0.00013359	0.00030875	0.28649921	0.15997140	0.00000000	1.00000000	0.38061320	0.00000000	0.04753153	0.00000000	0.93669224	0.95993161	0.20693070	0.00000000	0.00000000	0.05080535	0.00000000	0.81518753	0.08663999	1.00000000
0.63000000	0.12022384	0.19017594	-0.13445767	0.69443291	0.88460328	-0.24231812	-0.50943236	-0.23396372	-0.31262935	0.32717814	0.15088504	0.01861229	-0.00040485	0.28380044	0.21616587	-0.19461435	0.18134645	-0.07828300	0.02034670	-0.00088755	-0.16608089	-0.21511531	0.19407949	0.01589546	-0.22358434	-0.13464812	0.91407165	1.39706207	-0.00009351	0.00046255	-0.30565764	-0.16150477	-0.24202484	0.34089348	1.48079200	-0.00013359	0.00030875	0.32717814	0.18134645	0.00000000	1.00000000	0.52505416	0.00000000	0.00000000	0.00000000	0.72516573	0.62689570	0.20567119	0.00000000	0.00000000	0.08656674	0.00000000	0.70895727	0.08249341	1.00000000
0.64000000	0.12366669	0.21071960	-0.13202405	0.70955005	0.88546944	-0.24291793	-0.50411769	-0.26438510	-0.33067632	0.37410921	0.11340165	0.01861229	-0.00040485	0.27894463	0.23990344	-0.19705303	0.20472718	-0.07662036	0.02034670	-0.00088755	-0.16497474	-0.23789097	0.18498952	0.00392988	-0.21251373	-0.13669593	0.89498537	1.39730681	-0.00009351	0.00046255	-0.30064668	-0.16444163	-0.24900018	0.34454285	1.48102175	-0.00013359	0.00030875	0.37410921	0.20472718	0.07766801	1.00000000	0.67862254	0.00000000	0.00000000	0.00000000	0.54492931	0.32981285	0.20654967	0.00000000	0.00000000	0.12376588	0.00000000	0.60603054	0.08031765	1.00000000
0.65000000	0.12560052	0.22844877	-0.12801359	0.72442757	0.88659790	-0.24362474	-0.49185018	-0.29212366	-0.34142158	0.42738334	0.06923851	0.01861229	-0.00040485	0.27432475	0.26092174	-0.19560646	0.22822364	-0.06714152	0.02034670	-0.00088755	-0.16312215	-0.25708791	0.17401394	-0.00820572	-0.20197271	-0.13699418	0.87418865	1.39718810	-0.00009351	0.00046255	-0.29496322	-0.16658419	-0.25668336	0.34955900	1.48135580	-0.00013359	0.00030875	0.42738334	0.22822364	0.13786253	1.00000000	0.72493762	0.00000000	0.00000000	0.00000000	0.40265900	0.14114665	0.21153054	0.00000000	0.00000000	0.16155677	0.00000000	0.50999609	0.07963625	1.00000000
0.66000000	0.12504535	0.24320265	-0.12269320	0.73910901	0.88786355	-0.24443821	-0.47162393	-0.31712100	-0.34391150	0.48740073	0.01872493	0.01861229	-0.00040485	0.27000317	0.27925880	-0.19038594	0.24934574	-0.05341996	0.02034670	-0.00088755	-0.15920547	-0.27238527	0.16170051	-0.02049652	-0.19241896	-0.13486279	0.85166781	1.39656924	-0.00009351	0.00046255	-0.28906481	-0.16772910	-0.26530492	0.35636037	1.48152307	-0.00013359	0.00030875	0.48740073	0.24934574	0.12005365	1.00000000	0.58055143	0.00000000	0.00000000	0.00000000	0.34862342	0.20884043	0.22174843	0.00000000	0.00000000	0.19891775	0.00000000	0.42241547	0.08035813	1.00000000
0.67000000	0.12156990	0.25527966	-0.11682035	0.75359472	0.88916758	-0.24530924	-0.44276593	-0.33978820	-0.33774029	0.55395517	-0.03715124	0.01861229	-0.00040485	0.26583483	0.29521218	-0.18275047	0.26595270	-0.03858057	0.02034670	-0.00088755	-0.15243744	-0.28414715	0.14902874	-0.03286748	-0.18419128	-0.12996120	0.82770630	1.39534016	-0.00009351	0.00046255	-0.28315202	-0.16789495	-0.27432858	0.36504826	1.48153121	-0.00013359	0.00030875	0.55395517	0.26595270	0.05327715	1.00000000	0.31335262	0.00000000	0.00000000	0.00000000	0.36528318	0.49769703	0.23735159	0.00000000	0.00000000	0.23471944	0.00000000	0.34305979	0.08275952	1.00000000
0.68000000	0.11521034	0.26479367	-0.11136753	0.76782818	0.89044677	-0.24615456	-0.40495375	-0.36002551	-0.32246175	0.62568761	-0.09656960	0.01861229	-0.00040485	0.26163948	0.30865796	-0.17444787	0.27684438	-0.02436439	0.02034670	-0.00088755	-0.14266322	-0.29262590	0.13733723	-0.04532748	-0.17756489	-0.12249374	0.80304237	1.39327507	-0.00009351	0.00046255	-0.27701416	-0.16733259	-0.28199432	0.37516276	1.48151935	-0.00013359	0.00030875	0.62568761	0.27684438	0.00000000	1.00000000	0.04359839	0.00000000	0.00000000	0.00000000	0.40572763	0.86811722	0.25772200	0.00000000	0.00000000	0.26788659	0.00000000	0.27072059	0.08729040	1.00000000
0.69000000	0.10688487	0.27211279	-0.10719598	0.78177300	0.89169432	-0.24689008	-0.35967336	-0.37778310	-0.29922271	0.70022445	-0.15644150	0.01861229	-0.00040485	0.25661544	0.31976959	-0.16689442	0.28167644	-0.01145590	0.02034670	-0.00088755	-0.13077614	-0.29841606	0.12740181	-0.05779515	-0.17262536	-0.11280791	0.77852679	1.39042018	-0.00009351	0.00046255	-0.27041493	-0.16638556	-0.28689581	0.38635409	1.48152448	-0.00013359	0.00030875	0.70022445	0.28167644	0.00000000	0.77071574	0.00000000	0.00000000	0.00000000	0.00000000	0.34048331	0.86379705	0.28181262	0.00000000	0.00000000	0.29756955	0.00000000	0.20413673	0.09432754	1.00000000
0.70000000	0.09782054	0.27771264	-0.10485451	0.79541360	0.89293138	-0.24744556	-0.30931364	-0.39300239	-0.27012125	0.77494848	-0.21228733	0.01861229	-0.00040485	0.24990767	0.32889276	-0.16090028	0.28091946	0.00011392	0.02034670	-0.00088755	-0.11808609	-0.30222776	0.11921929	-0.06998109	-0.16936663	-0.10074859	0.75466874	1.38719949	-0.00009351	0.00046255	-0.26331807	-0.16531543	-0.28888404	0.39866656	1.48153064	-0.00013359	0.00030875	0.77494848	0.28091946	0.00748798	0.50358159	0.00000000	0.00000000	0.00000000	0.00000000	0.26587050	0.76729977	0.30826490	0.00000000	0.00000000	0.32316538	0.00000000	0.14278225	0.10403070	1.00000000
0.71000000	0.08786357	0.28213490	-0.10456500	0.80872472	0.89408671	-0.24776117	-0.25424242	-0.40572915	-0.23647970	0.84841942	-0.25882695	0.01861229	-0.00040485	0.24268283	0.33622388	-0.15730966	0.27602701	0.01070165	0.02034670	-0.00088755	-0.10430874	-0.30476139	0.11223254	-0.08116815	-0.16794198	-0.08407781	0.73086528	1.38374971	-0.00009351	0.00046255	-0.25625816	-0.16418272	-0.28935879	0.41254237	1.48152778	-0.00013359	0.00030875	0.84841942	0.27602701	0.04360688	0.46264155	0.00000000	0.00000000	0.00000000	0.00000000	0.23884214	0.80335115	0.33537890	0.00000000	0.00000000	0.34422952	0.00000000	0.08733279	0.11632142	1.00000000
0.72000000	0.07655678	0.28583676	-0.10607927	0.82168229	0.89508846	-0.24781412	-0.19449274	-0.41604784	-0.19969424	0.91984465	-0.29083281	0.01861229	-0.00040485	0.23645714	0.34196483	-0.15637527	0.26874884	0.02070915	0.02034670	-0.00088755	-0.08894349	-0.30658981	0.10533441	-0.09054091	-0.16847051	-0.06005048	0.70629004	1.37947530	-0.00009351	0.00046255	-0.24989934	-0.16299881	-0.29021449	0.42855387	1.48152027	-0.00013359	0.00030875	0.91984465	0.26874884	0.02195232	0.22487596	0.00000000	0.00000000	0.00000000	0.00000000	0.18545013	0.63816424	0.36111375	0.00000000	0.00000000	0.36038333	0.00000000	0.03963065	0.13094443	1.00000000
0.73000000	0.06569035	0.28870693	-0.10870473	0.83428754	0.89606406	-0.24764253	-0.13369946	-0.42361763	-0.16262195	0.98736868	-0.30466481	0.01861229	-0.00040485	0.22944748	0.34637063	-0.15658705	0.26002797	0.03033259	0.02034670	-0.00088755	-0.07443990	-0.30772575	0.09736453	-0.09807886	-0.17059319	-0.02957936	0.68177069	1.37398956	-0.00009351	0.00046255	-0.24386953	-0.16208190	-0.29136989	0.44661154	1.48155961	-0.00013359	0.00030875	0.98736868	0.26002797	0.16604319	0.62704643	0.00000000	0.00000000	0.00000000	0.00000000	0.21017350	0.87797440	0.38327834	0.00000000	0.00000000	0.37130069	0.00000000	0.00224542	0.14754470	1.00000000
0.74000000	0.05760806	0.29032460	-0.11165639	0.84655414	0.89718811	-0.24731522	-0.07632803	-0.42803372	-0.12808397	1.04894038	-0.29984437	0.01861229	-0.00040485	0.21882326	0.34958760	-0.15591517	0.25026641	0.03961362	0.02034670	-0.00088755	-0.06398319	-0.30784430	0.08769340	-0.10442443	-0.17364040	0.00386980	0.65886663	1.36811574	-0.00009351	0.00046255	-0.23718530	-0.16195020	-0.29119274	0.46595525	1.48154125	-0.00013359	0.00030875	1.04894038	0.25026641	0.14657729	0.45429075	0.00000000	0.00000000	0.00000000	0.00000000	0.17279537	0.71054455	0.41319718	0.00000000	0.01400702	0.37965530	0.00000000	0.00000000	0.16120506	1.00000000
0.75000000	0.05228328	0.29052048	-0.11413594	0.85850079	0.89847187	-0.24689686	-0.02322699	-0.42932073	-0.09728488	1.10383722	-0.27892951	0.01861229	-0.00040485	0.20471924	0.35159242	-0.15331970	0.24019241	0.04861212	0.02034670	-0.00088755	-0.05781344	-0.30677514	0.07589765	-0.11000652	-0.17709777	0.03834408	0.63791911	1.36309873	-0.00009351	0.00046255	-0.22957102	-0.16286804	-0.28928205	0.48603759	1.48104226	-0.00013359	0.00030875	1.10383722	0.24019241	0.13916730	0.59874729	0.00000000	0.00000000	0.00000000	0.00000000	0.17869676	0.72767863	0.43302027	0.00000000	0.02459407	0.38237535	0.00000000	0.00000000	0.17719481	1.00000000
0.76000000	0.04831423	0.28929474	-0.11534812	0.87015489	0.89983594	-0.24644620	0.02681088	-0.42767858	-0.07054495	1.15196632	-0.24632503	0.01861229	-0.00040485	0.18895978	0.35228316	-0.14834825	0.23062661	0.05741741	0.02034670	-0.00088755	-0.05443989	-0.30442978	0.06152846	-0.11502616	-0.18061361	0.07302088	0.61854022	1.35959115	-0.00009351	0.00046255	-0.22132488	-0.16481520	-0.28652872	0.50663598	1.47977132	-0.00013359	0.00030875	1.15196632	0.23062661	0.11570831	0.58981712	0.00000000	0.00000000	0.00000000	0.00000000	0.16123364	0.63473547	0.42957398	0.00000000	0.01810791	0.37613246	0.00000000	0.00000000	0.19952216	1.00000000
0.77000000	0.04483056	0.28661618	-0.11485169	0.88155287	0.90123234	-0.24600732	0.07441114	-0.42326855	-0.04795819	1.19299015	-0.20714768	0.01861229	-0.00040485	0.17258901	0.35157586	-0.14076082	0.22189378	0.06606958	0.02034670	-0.00088755	-0.05288376	-0.30065719	0.04457335	-0.11986772	-0.18386750	0.10620681	0.60068336	1.35793351	-0.00009351	0.00046255	-0.21258404	-0.16772413	-0.28345266	0.52741803	1.47785556	-0.00013359	0.00030875	1.19299015	0.22189378	0.09229342	0.56624565	0.00000013	0.00000000	0.00000000	0.00000000	0.14227649	0.54136515	0.40936857	0.00000000	0.00000000	0.36336279	0.00000000	0.00000000	0.22603062	1.00000000
0.78000000	0.04146115	0.28251749	-0.11274631	0.89273639	0.90263501	-0.24559555	0.11985871	-0.41633402	-0.02914600	1.22661415	-0.16595788	0.01861229	-0.00040485	0.15600441	0.34946179	-0.13081900	0.21387063	0.07455131	0.02034670	-0.00088755	-0.05256362	-0.29537662	0.02559944	-0.12500729	-0.18665562	0.13580332	0.58448743	1.35839655	-0.00009351	0.00046255	-0.20336911	-0.17149816	-0.28015771	0.54809186	1.47547872	-0.00013359	0.00030875	1.22661415	0.21387063	0.09646098	0.21800069	0.21540036	0.00000024	0.00000085	0.04998134	0.00000034	0.06042932	0.40207194	0.00000000	0.00000000	0.35278531	0.00000000	0.01815207	0.24701027	1.00000000
0.79000000	0.03796516	0.27714511	-0.10951642	0.90374634	0.90401158	-0.24519959	0.16357531	-0.40720183	-0.01328423	1.25284318	-0.12576106	0.01861229	-0.00040485	0.13947815	0.34601406	-0.11925020	0.20623376	0.08283254	0.02034670	-0.00088755	-0.05289231	-0.28865429	0.00545853	-0.13078641	-0.18895912	0.16026895	0.56998878	1.36080391	-0.00009351	0.00046255	-0.19381293	-0.17595529	-0.27695931	0.56869737	1.47283060	-0.00013359	0.00030875	1.25284318	0.20623376	0.08654872	0.20374085	0.18833700	0.00000062	0.00000510	0.07588406	0.00000064	0.06709393	0.39223605	0.00000000	0.00000000	0.34043879	0.00000000	0.05170660	0.26826425	1.00000000
0.80000000	0.03435407	0.27064231	-0.10583584	0.91461893	0.90533930	-0.24479297	0.20578890	-0.39613070	0.00055945	1.27184133	-0.08788039	0.01861229	-0.00040485	0.12300148	0.34131344	-0.10694781	0.19858710	0.09091861	0.02034670	-0.00088755	-0.05353304	-0.28059007	-0.01490481	-0.13738458	-0.19090689	0.17866886	0.55721532	1.36427051	-0.00009351	0.00046255	-0.18406709	-0.18085510	-0.27432838	0.58951707	1.47033440	-0.00013359	0.00030875	1.27184133	0.19858710	0.06979384	0.17102065	0.15101248	0.00000033	0.00000217	0.06801712	0.00000039	0.05478962	0.38185723	0.00000000	0.00000000	0.32808408	0.00000000	0.08650012	0.28982152	1.00000000
0.81000000	0.03090448	0.26309305	-0.10239335	0.92538527	0.90661302	-0.24434348	0.24636439	-0.38325062	0.01318239	1.28380812	-0.05244877	0.01861229	-0.00040485	0.10626912	0.33539935	-0.09475367	0.19058865	0.09886267	0.02034670	-0.00088755	-0.05449532	-0.27125648	-0.03453702	-0.14488256	-0.19267308	0.19050699	0.54623098	1.36734640	-0.00009351	0.00046255	-0.17417793	-0.18597759	-0.27259139	0.61084494	1.46857328	-0.00013359	0.00030875	1.28380812	0.19058865	0.05358448	0.13345456	0.11293461	0.00000096	0.00000442	0.04170098	0.00000125	0.03479901	0.38532863	0.00000000	0.00000000	0.33614635	0.00000000	0.00000000	0.26935146	0.85109182
0.82000000	0.02786656	0.25463569	-0.09970297	0.93607795	0.90782819	-0.24381091	0.28506917	-0.36865196	0.02516154	1.28896954	-0.01906344	0.01861229	-0.00040485	0.08904253	0.32833665	-0.08333604	0.18209943	0.10674985	0.02034670	-0.00088755	-0.05579489	-0.26085089	-0.05268052	-0.15326062	-0.19434021	0.19599413	0.53688536	1.36861704	-0.00009351	0.00046255	-0.16420051	-0.19121474	-0.27199184	0.63290723	1.46802267	-0.00013359	0.00030875	1.28896954	0.18209943	0.04272436	0.10034937	0.08110219	0.00000046	0.00000109	0.01150571	0.00000117	0.01586184	0.37982412	0.00000000	0.00000000	0.33121833	0.00000000	0.00000000	0.28002607	0.81135922
0.83000000	0.02528548	0.24545653	-0.09802043	0.94672347	0.90896998	-0.24315658	0.32178009	-0.35241397	0.03683811	1.28755465	0.01259534	0.01861229	-0.00040485	0.07141323	0.32021613	-0.07312354	0.17329494	0.11470835	0.02034670	-0.00088755	-0.05729467	-0.24965940	-0.06901382	-0.16225995	-0.19593934	0.19641797	0.52858191	1.36739586	-0.00009351	0.00046255	-0.15428025	-0.19649608	-0.27295697	0.65587108	1.46871311	-0.00013359	0.00030875	1.28755465	0.17329494	0.03404527	0.14388396	0.01416157	0.00000005	0.00000008	0.00000014	0.03205257	0.10181049	0.37462402	0.00000000	0.00000000	0.32711197	0.00000000	0.00000000	0.29294637	0.77798686
0.84000000	0.02316782	0.23567753	-0.09742027	0.95732529	0.91002621	-0.24237110	0.35634746	-0.33463109	0.04832729	1.27972069	0.04236455	0.01861229	-0.00040485	0.05363235	0.31113488	-0.06428574	0.16460703	0.12284976	0.02034670	-0.00088755	-0.05898838	-0.23782954	-0.08349940	-0.17144437	-0.19756373	0.19345027	0.52056713	1.36398753	-0.00009351	0.00046255	-0.14438678	-0.20169998	-0.27569865	0.67959600	1.47030638	-0.00013359	0.00030875	1.27972069	0.16460703	0.03711726	0.13974359	0.00000001	0.00000000	0.00000000	0.00000000	0.03709946	0.11413103	0.36942671	0.00000000	0.00000000	0.32393389	0.00000000	0.00000000	0.30772904	0.74981972
0.85000000	0.02149996	0.22548849	-0.09782980	0.96787527	0.91098772	-0.24147412	0.38861597	-0.31561367	0.05956933	1.26556407	0.06965813	0.01861229	-0.00040485	0.03600103	0.30133945	-0.05678375	0.15654072	0.13117603	0.02034670	-0.00088755	-0.06095042	-0.22552257	-0.09614186	-0.18046441	-0.19927054	0.18825557	0.51229283	1.35942511	-0.00009351	0.00046255	-0.13425741	-0.20678133	-0.27979776	0.70351375	1.47263510	-0.00013359	0.00030875	1.26556407	0.15654072	0.05499928	0.07214431	0.04779862	0.00000120	0.00000169	0.00000578	0.00388639	0.02187383	0.36406796	0.00000000	0.00000000	0.32189511	0.00000000	0.00000000	0.32341432	0.72434386
0.86000000	0.02009270	0.21516548	-0.09898662	0.97837559	0.91183672	-0.24048946	0.41855445	-0.29585729	0.07031232	1.24515923	0.09386722	0.01861229	-0.00040485	0.01893305	0.29115996	-0.05046656	0.14955901	0.13971426	0.02034670	-0.00088755	-0.06303669	-0.21302758	-0.10720605	-0.18901393	-0.20103587	0.18182169	0.50336688	1.35476128	-0.00009351	0.00046255	-0.12380898	-0.21175340	-0.28497372	0.72712606	1.47570652	-0.00013359	0.00030875	1.24515923	0.14955901	0.07114294	0.07252058	0.06290787	0.00000054	0.00000105	0.02974721	0.00000151	0.02671675	0.35865222	0.00000000	0.00000000	0.32128209	0.00000000	0.00000000	0.33886194	0.69884937
0.87000000	0.01867957	0.20487030	-0.10049284	0.98883909	0.91255374	-0.23944170	0.44612662	-0.27584339	0.08005847	1.21854771	0.11464292	0.01861229	-0.00040485	0.00278967	0.28079240	-0.04513030	0.14398865	0.14861238	0.02034670	-0.00088755	-0.06499875	-0.20053763	-0.11730667	-0.19672461	-0.20287461	0.17522653	0.49353915	1.35057286	-0.00009351	0.00046255	-0.11326596	-0.21654977	-0.29148346	0.75039193	1.47890512	-0.00013359	0.00030875	1.21854771	0.14398865	0.08696157	0.08590732	0.07580067	0.00000136	0.00000464	0.07148548	0.00000176	0.04709801	0.35357440	0.00000000	0.00000000	0.32238012	0.00000000	0.00000000	0.35317052	0.67148707
0.88000000	0.01704291	0.19475347	-0.10190498	0.99928373	0.91312329	-0.23836825	0.47128330	-0.25620024	0.08813475	1.18580450	0.13191828	0.01861229	-0.00040485	-0.01225079	0.27043874	-0.04050226	0.13991085	0.15790005	0.02034670	-0.00088755	-0.06663180	-0.18820809	-0.12703718	-0.20336821	-0.20482606	0.16913666	0.48280175	1.34720387	-0.00009351	0.00046255	-0.10288041	-0.22115175	-0.29923615	0.77346007	1.48100637	-0.00013359	0.00030875	1.18580450	0.13991085	0.10067225	0.10157689	0.08682059	0.00000052	0.00000376	0.11404610	0.00000051	0.06708164	0.34945161	0.00000000	0.00000000	0.32539229	0.00000000	0.00000000	0.36596614	0.64186241
0.89000000	0.01497569	0.18509585	-0.10279094	1.00973112	0.91352764	-0.23731608	0.49410847	-0.23779203	0.09381657	1.14711564	0.14590707	0.01861229	-0.00040485	-0.02610274	0.26044146	-0.03624509	0.13716425	0.16737440	0.02034670	-0.00088755	-0.06770678	-0.17630760	-0.13677444	-0.20895887	-0.20688223	0.16368821	0.47129108	1.34501493	-0.00009351	0.00046255	-0.09281460	-0.22566912	-0.30755414	0.79633400	1.48162278	-0.00013359	0.00030875	1.14711564	0.13716425	0.11006718	0.11578375	0.09100408	0.00000119	0.00004511	0.14603050	0.00000081	0.08187641	0.34695924	0.00000000	0.00000000	0.33037268	0.00000000	0.00000000	0.37747254	0.61097787
0.90000000	0.01228701	0.17618224	-0.10283793	1.02020248	0.91374690	-0.23632476	0.51479090	-0.22141633	0.09645832	1.10276201	0.15710205	0.01861229	-0.00040485	-0.03873632	0.25112979	-0.03206922	0.13542740	0.17677181	0.02034670	-0.00088755	-0.06798406	-0.16510243	-0.14670932	-0.21363647	-0.20900333	0.15875778	0.45916131	1.34411701	-0.00009351	0.00046255	-0.08317778	-0.23020261	-0.31579225	0.81887740	1.48157525	-0.00013359	0.00030875	1.10276201	0.13542740	0.11370769	0.12463095	0.08405313	0.00000042	0.00013090	0.15742439	0.00000037	0.08772063	0.34657790	0.00000000	0.00000000	0.33716266	0.00000000	0.00000000	0.38840316	0.58074522
0.91000000	0.00893848	0.16807043	-0.10188375	1.03071565	0.91377357	-0.23541732	0.53333796	-0.20749364	0.09545470	1.05298988	0.16611509	0.01861229	-0.00040485	-0.05031863	0.24257281	-0.02778998	0.13430769	0.18594302	0.02034670	-0.00088755	-0.06741111	-0.15462527	-0.15701325	-0.21747888	-0.21118353	0.15431099	0.44647834	1.34429799	-0.00009351	0.00046255	-0.07407431	-0.23473117	-0.32374896	0.84102857	1.48154797	-0.00013359	0.00030875	1.05298988	0.13430769	0.11215861	0.12467491	0.06362150	0.00000088	0.00083463	0.14122741	0.00000083	0.08190778	0.30704603	0.00000000	0.00000000	0.10431393	0.24989238	0.00000000	0.78392176	1.00000000
0.92000000	0.00513952	0.16045518	-0.09983762	1.04128648	0.91362551	-0.23460090	0.54932192	-0.19595513	0.09011238	0.99787717	0.17345635	0.01861229	-0.00040485	-0.06131614	0.23443393	-0.02328229	0.13343928	0.19492478	0.02034670	-0.00088755	-0.06626819	-0.14454418	-0.16805364	-0.22035063	-0.21350276	0.15073315	0.43311286	1.34538129	-0.00009351	0.00046255	-0.06566457	-0.23909680	-0.33177376	0.86289739	1.48156977	-0.00013359	0.00030875	0.99787717	0.13343928	0.10193625	0.11286085	0.02595838	0.00000037	0.00002154	0.10350401	0.00000039	0.06935612	0.30987254	0.00000000	0.00000000	0.10142350	0.26262556	0.00000000	0.81712484	1.00000000
0.93000000	0.00123602	0.15299101	-0.09677573	1.05192885	0.91333183	-0.23386128	0.56215884	-0.18643288	0.08006466	0.93749423	0.17942574	0.01861229	-0.00040485	-0.07231355	0.22632185	-0.01856762	0.13250525	0.20373743	0.02034670	-0.00088755	-0.06498942	-0.13452262	-0.17995135	-0.22215076	-0.21600028	0.14835073	0.41897018	1.34718947	-0.00009351	0.00046255	-0.05795257	-0.24319991	-0.34003772	0.88444365	1.48156946	-0.00013359	0.00030875	0.93749423	0.13250525	0.12616587	0.10073100	0.00000201	0.00000049	0.01851280	0.01701663	0.00000086	0.02182976	0.31430225	0.00000000	0.00000000	0.10150531	0.27264728	0.00000000	0.84819670	1.00000000
0.94000000	-0.00236550	0.14549771	-0.09300176	1.06265590	0.91292269	-0.23316097	0.57131141	-0.17837354	0.06560037	0.87206241	0.18406917	0.01861229	-0.00040485	-0.08389307	0.21801327	-0.01386516	0.13124033	0.21225977	0.02034670	-0.00088755	-0.06403417	-0.12443963	-0.19224680	-0.22302661	-0.21857692	0.14692553	0.40423230	1.34932918	-0.00009351	0.00046255	-0.05064050	-0.24711808	-0.34802651	0.90530810	1.48156799	-0.00013359	0.00030875	0.87206241	0.13124033	0.17319986	0.07368989	0.00000000	0.00000000	0.04157154	0.00000000	0.00000000	0.00253581	0.31920390	0.00000000	0.00000000	0.10377734	0.28008200	0.00000000	0.87774400	1.00000000
0.95000000	-0.00535176	0.13775053	-0.08883779	1.07348471	0.91242309	-0.23245196	0.57634299	-0.17096439	0.04738883	0.80194337	0.18718187	0.01861229	-0.00040485	-0.09644931	0.20920939	-0.00946428	0.12957758	0.22046238	0.02034670	-0.00088755	-0.06374329	-0.11413600	-0.20440935	-0.22318585	-0.22110130	0.14592088	0.38924461	1.35135825	-0.00009351	0.00046255	-0.04344397	-0.25092044	-0.35526046	0.92514294	1.48157117	-0.00013359	0.00030875	0.80194337	0.12957758	0.23531729	0.05774032	0.00000000	0.00000000	0.07112267	0.00000000	0.00434459	0.00000000	0.32321605	0.00000000	0.00000000	0.10726897	0.28528690	0.00000000	0.90655803	1.00000000
0.96000000	-0.00758792	0.12948023	-0.08450923	1.08443770	0.91184724	-0.23168730	0.57704917	-0.16326209	0.02640144	0.72771834	0.18844869	0.01861229	-0.00040485	-0.11008733	0.19954030	-0.00562141	0.12767163	0.22842285	0.02034670	-0.00088755	-0.06424075	-0.10339519	-0.21607130	-0.22282053	-0.22345959	0.14471313	0.37440018	1.35292132	-0.00009351	0.00046255	-0.03624199	-0.25460744	-0.36155043	0.94375964	1.48157283	-0.00013359	0.00030875	0.72771834	0.12767163	0.31557144	0.06272134	0.00000000	0.00000000	0.11134289	0.00000000	0.01440120	0.00000000	0.32493723	0.00000000	0.00000000	0.11109617	0.28861293	0.00000000	0.93535453	1.00000000
0.97000000	-0.00868699	0.12029104	-0.08013633	1.09554537	0.91123520	-0.23082660	0.57294387	-0.15425993	0.00384770	0.65008654	0.18763084	0.01861229	-0.00040485	-0.12519932	0.18851706	-0.00243312	0.12568145	0.23616640	0.02034670	-0.00088755	-0.06593706	-0.09186672	-0.22702064	-0.22204310	-0.22558204	0.14290577	0.36000317	1.35391891	-0.00009351	0.00046255	-0.02896874	-0.25816706	-0.36676205	0.96109115	1.48157415	-0.00013359	0.00030875	0.65008654	0.12568145	0.40924112	0.09765686	0.00000000	0.00000000	0.15929122	0.00000000	0.02862597	0.00000000	0.32311984	0.00000000	0.00000000	0.11465212	0.29025761	0.00000000	0.96458429	1.00000000
0.98000000	-0.00825357	0.10985595	-0.07573251	1.10684340	0.91063071	-0.22984184	0.56364089	-0.14315331	-0.01875250	0.56993614	0.18468158	0.01861229	-0.00040485	-0.14215442	0.17574510	0.00013848	0.12381611	0.24369288	0.02034670	-0.00088755	-0.06922798	-0.07926667	-0.23717674	-0.22094822	-0.22742004	0.14027298	0.34626999	1.35447136	-0.00009351	0.00046255	-0.02164878	-0.26159509	-0.37078666	0.97717267	1.48157588	-0.00013359	0.00030875	0.56993614	0.12381611	0.50707934	0.15952711	0.00000000	0.00000000	0.21038102	0.00000000	0.04596917	0.00000000	0.31674626	0.00000000	0.00000000	0.11770879	0.29013668	0.00000000	0.99428003	1.00000000
0.99000000	-0.00631759	0.09825737	-0.07125015	1.11836755	0.91004133	-0.22872042	0.54951408	-0.12967161	-0.03939341	0.48849556	0.17970745	0.01861229	-0.00040485	-0.16073771	0.16127612	0.00210038	0.12242816	0.25100329	0.02034670	-0.00088755	-0.07394865	-0.06572042	-0.24636981	-0.21982759	-0.22886475	0.13624670	0.33353848	1.35457096	-0.00009351	0.00046255	-0.01437112	-0.26493553	-0.37337291	0.99204607	1.48157751	-0.00013359	0.00030875	0.48849556	0.12242816	0.59684915	0.23769618	0.00000000	0.00000000	0.25823869	0.00000000	0.06444225	0.00000000	0.30745899	0.00000000	0.00000000	0.13507512	0.27258661	0.00000000	1.00000000	0.97418215
1.00000000	-0.00260984	0.08555444	-0.06654165	1.13016010	0.90950419	-0.22746919	0.53058305	-0.11383377	-0.05611882	0.40701379	0.17279264	0.01861229	-0.00040485	-0.18113487	0.14516616	0.00346734	0.12176107	0.25811088	0.02034670	-0.00088755	-0.08026628	-0.05130192	-0.25450717	-0.21896540	-0.22984943	0.13032696	0.32216140	1.35420016	-0.00009351	0.00046255	-0.00718663	-0.26820929	-0.37425746	1.00580606	1.48157910	-0.00013359	0.00030875	0.40701379	0.12176107	0.66567916	0.31044733	0.00000000	0.00000000	0.29573671	0.00000000	0.08089280	0.00000000	0.29288131	0.00000000	0.00000000	0.15514076	0.24982977	0.00000000	1.00000000	0.94010795
1.01000000	0.00321565	0.07191533	-0.06139685	1.14225972	0.90906384	-0.22611920	0.50690624	-0.09616691	-0.06741778	0.32713445	0.16404131	0.01861229	-0.00040485	-0.20364829	0.12762358	0.00427559	0.12200097	0.26503674	0.02034670	-0.00088755	-0.08844841	-0.03616794	-0.26171429	-0.21850474	-0.23040118	0.12259825	0.31229580	1.35351405	-0.00009351	0.00046255	-0.00019857	-0.27138850	-0.37337149	1.01860861	1.48158070	-0.00013359	0.00030875	0.32713445	0.12200097	0.70527071	0.35696408	0.00000000	0.00000000	0.31781749	0.00000000	0.09288895	0.00000000	0.27296213	0.00000000	0.00000000	0.17433201	0.22568131	0.00000000	1.00000000	0.90736615
1.02000000	0.01080187	0.05805418	-0.05567641	1.15467929	0.90870096	-0.22472053	0.47986384	-0.07800456	-0.07253681	0.25152766	0.15380161	0.01861229	-0.00040485	-0.22766365	0.10946208	0.00446264	0.12346879	0.27173876	0.02034670	-0.00088755	-0.09794561	-0.02099763	-0.26812195	-0.21857266	-0.23057307	0.11348461	0.30394532	1.35266444	-0.00009351	0.00046255	0.00640347	-0.27443597	-0.37073940	1.03051528	1.48158231	-0.00013359	0.00030875	0.25152766	0.12346879	0.70996861	0.36367427	0.00000000	0.00000000	0.32012557	0.00000000	0.09702245	0.00000000	0.24838047	0.00000000	0.00000000	0.19232825	0.20073811	0.00000000	1.00000000	0.87707564
1.03000000	0.01986564	0.04443858	-0.04928780	1.16741112	0.90840658	-0.22333014	0.45090967	-0.06053379	-0.07255597	0.18332002	0.14274976	0.01861229	-0.00040485	-0.25266432	0.09122814	0.00367662	0.12641722	0.27819548	0.02034670	-0.00088755	-0.10835405	-0.00613205	-0.27388363	-0.21911890	-0.23052363	0.10366391	0.29700016	1.35170385	-0.00009351	0.00046255	0.01248863	-0.27721223	-0.36651306	1.04150120	1.48158390	-0.00013359	0.00030875	0.18332002	0.12641722	0.69019587	0.33138021	0.00000000	0.00000000	0.30925237	0.00000000	0.09864448	0.00000000	0.22007981	0.00000000	0.00000000	0.20866421	0.17572927	0.00000000	1.00000000	0.85055664
1.04000000	0.02960164	0.03157044	-0.04246269	1.18040111	0.90812743	-0.22198379	0.42261206	-0.04475880	-0.07075849	0.12658151	0.13258669	0.01861229	-0.00040485	-0.27750440	0.07357895	0.00151459	0.13111558	0.28428286	0.02034670	-0.00088755	-0.11881564	0.00805836	-0.27913604	-0.21980479	-0.23048504	0.09437725	0.29106854	1.35060658	-0.00009351	0.00046255	0.01782658	-0.27951031	-0.36117343	1.05148489	1.48158549	-0.00013359	0.00030875	0.12658151	0.13111558	0.61758259	0.25962946	0.00000002	0.00000001	0.26439250	0.00458015	0.07610430	0.00000003	0.18902442	0.00000000	0.00000000	0.22273069	0.15136968	0.00000000	1.00000000	0.82932563
1.05000000	0.03734239	0.02102458	-0.03613049	1.19352908	0.90764964	-0.22066473	0.40064336	-0.03227248	-0.07111618	0.08675653	0.12616538	0.01861229	-0.00040485	-0.29877665	0.05851801	-0.00182313	0.13801809	0.28939493	0.02034670	-0.00088755	-0.12647635	0.01994425	-0.28369631	-0.22022504	-0.23056213	0.08715516	0.28547441	1.34939896	-0.00009351	0.00046255	0.02192270	-0.28121130	-0.35545276	1.06020254	1.48158708	-0.00013359	0.00030875	0.08675653	0.13801809	0.63195430	0.23048007	0.00000000	0.00000000	0.28374746	0.00000000	0.11959539	0.00000000	0.15586065	0.00000000	0.00000000	0.23378437	0.12817102	0.00000000	1.00000000	0.81507052
1.06000000	0.04201252	0.01295583	-0.03097673	1.20674507	0.90691338	-0.21933342	0.38730358	-0.02295733	-0.07638407	0.06609464	0.12446280	0.01861229	-0.00040485	-0.31524503	0.04644424	-0.00627902	0.14711724	0.29300551	0.02034670	-0.00088755	-0.13026330	0.02935284	-0.28728413	-0.22008713	-0.23086510	0.08245313	0.27994394	1.34819490	-0.00009351	0.00046255	0.02455674	-0.28211462	-0.34981954	1.06740466	1.48158866	-0.00013359	0.00030875	0.06609464	0.14711724	0.45100042	0.08397178	0.03882103	0.00144332	0.13133236	0.32288805	0.00000045	0.14716361	0.12056520	0.00000000	0.00000000	0.24094285	0.10629093	0.00000000	1.00000000	0.80951355
1.07000000	0.04654935	0.00456565	-0.02660796	1.22014569	0.90624190	-0.21798169	0.37744342	-0.01382826	-0.08787686	0.06126893	0.12503604	0.01861229	-0.00040485	-0.33083809	0.03424260	-0.01272602	0.15760177	0.29512999	0.02034670	-0.00088755	-0.13351762	0.03933008	-0.28983688	-0.21928615	-0.23165705	0.07919240	0.27499657	1.34702592	-0.00009351	0.00046255	0.02612891	-0.28181523	-0.34421829	1.07313017	1.48159024	-0.00013359	0.00030875	0.06126893	0.15760177	0.47805400	0.00002118	0.00000120	0.00051429	0.17279234	0.32370456	0.02269187	0.00000251	0.08204643	0.00000000	0.00000000	0.24313794	0.08542167	0.00000000	1.00000000	0.81425365
1.08000000	0.05298749	-0.00589887	-0.02262007	1.23380094	0.90584195	-0.21661752	0.36731903	-0.00312684	-0.10600326	0.06875237	0.12513774	0.01861229	-0.00040485	-0.34830480	0.01989445	-0.02156376	0.16884650	0.29542359	0.02034670	-0.00088755	-0.13848440	0.05177612	-0.29123077	-0.21798362	-0.23303719	0.07625952	0.27117910	1.34587662	-0.00009351	0.00046255	0.02694357	-0.28006765	-0.33849398	1.07742970	1.48159182	-0.00013359	0.00030875	0.06875237	0.16884650	0.46544643	0.12494844	0.00366823	0.02431239	0.13717824	0.30073825	0.00000084	0.05745435	0.03791177	0.00000000	0.00000000	0.23903198	0.06485435	0.00000000	1.00000000	0.83046864
1.09000000	0.05997105	-0.01746244	-0.01919460	1.24769273	0.90561541	-0.21522065	0.35842963	0.00813185	-0.12962827	0.08650468	0.12276192	0.01861229	-0.00040485	-0.36597862	0.00444175	-0.03207487	0.18106895	0.29308165	0.02034670	-0.00088755	-0.14354153	0.06554866	-0.29136985	-0.21647583	-0.23481826	0.07336118	0.26855961	1.34481202	-0.00009351	0.00046255	0.02668984	-0.27696332	-0.33275802	1.08019780	1.48159340	-0.00013359	0.00030875	0.08650468	0.18106895	0.48634775	0.17429634	0.00959381	0.03297177	0.15237994	0.28071519	0.00000274	0.02417674	0.00000000	0.00000000	0.00000000	0.22919148	0.04738484	0.00000000	1.00000000	0.86066350
1.10000000	0.06604310	-0.02912167	-0.01644585	1.26181303	0.90546284	-0.21375180	0.35164447	0.01903885	-0.15582691	0.11067477	0.11522251	0.01861229	-0.00040485	-0.38191923	-0.01111926	-0.04349581	0.19480621	0.28768168	0.02034670	-0.00088755	-0.14694948	0.07942195	-0.29051017	-0.21492004	-0.23678191	0.07050138	0.26705469	1.34391372	-0.00009351	0.00046255	0.02488634	-0.27269362	-0.32728364	1.08138118	1.48159497	-0.00013359	0.00030875	0.11067477	0.19480621	0.49587125	0.22466840	0.02903578	0.03415971	0.17124400	0.22643261	0.00000193	0.00425707	0.00000000	0.00000000	0.08308875	0.20237662	0.05338612	0.00000000	1.00000000	0.87746702
1.11000000	0.07114270	-0.04117027	-0.01422596	1.27616928	0.90540962	-0.21217249	0.34550143	0.03024739	-0.18180182	0.13614552	0.09983520	0.01861229	-0.00040485	-0.39577689	-0.02732551	-0.05592805	0.21061534	0.27921380	0.02034670	-0.00088755	-0.14861853	0.09361010	-0.28887380	-0.21335973	-0.23880381	0.06746376	0.26673410	1.34320621	-0.00009351	0.00046255	0.02144913	-0.26738196	-0.32213369	1.08085832	1.48159654	-0.00013359	0.00030875	0.13614552	0.21061534	0.48745692	0.26796530	0.00496290	0.03758960	0.18545046	0.15839483	0.00907993	0.00000841	0.00000000	0.00000000	0.19236575	0.16063756	0.06605168	0.00000000	1.00000000	0.89415452
1.12000000	0.07592685	-0.05474279	-0.01229512	1.29074924	0.90554256	-0.21045126	0.33798023	0.04347781	-0.20612394	0.15873276	0.07545558	0.01861229	-0.00040485	-0.40792606	-0.04569724	-0.07041301	0.22919489	0.26772947	0.02034670	-0.00088755	-0.14936496	0.10930849	-0.28628233	-0.21189613	-0.24081708	0.06360121	0.26789758	1.34268322	-0.00009351	0.00046255	0.01678860	-0.26108559	-0.31697001	1.07826255	1.48159811	-0.00013359	0.00030875	0.15873276	0.22919489	0.45349965	0.22642569	0.00000249	0.01695255	0.21922610	0.08750519	0.03483206	0.00000185	0.00000000	0.00000000	0.33124349	0.10142343	0.08767221	0.00000000	1.00000000	0.90510394
1.13000000	0.08091082	-0.07015783	-0.01062307	1.30550553	0.90593074	-0.20856206	0.32788239	0.05958320	-0.22713773	0.17626867	0.04427574	0.01861229	-0.00040485	-0.41851535	-0.06673679	-0.08718375	0.25119750	0.25301876	0.02034670	-0.00088755	-0.14996034	0.12680703	-0.28253983	-0.21046989	-0.24267608	0.05863185	0.27071357	1.34238266	-0.00009351	0.00046255	0.01132327	-0.25395971	-0.31164925	1.07335509	1.48159968	-0.00013359	0.00030875	0.17626867	0.25119750	0.39392785	0.12263985	0.00000174	0.00201147	0.23490129	0.04497509	0.04504310	0.00000332	0.00000000	0.00000000	0.50147359	0.02274290	0.12112922	0.00000000	1.00000000	0.90328030
1.14000000	0.08610828	-0.08631068	-0.00945025	1.32034930	0.90658860	-0.20649503	0.31552432	0.07759847	-0.24285143	0.18933812	0.01197245	0.01861229	-0.00040485	-0.42704055	-0.08921827	-0.10505327	0.27720127	0.23453789	0.02034670	-0.00088755	-0.15070832	0.14481735	-0.27771983	-0.20872069	-0.24417111	0.05331898	0.27495954	1.34237316	-0.00009351	0.00046255	0.00520452	-0.24628341	-0.30651465	1.06622423	1.48160124	-0.00013359	0.00030875	0.18933812	0.27720127	0.32542795	0.00034623	0.00000059	0.01489559	0.21143811	0.04269817	0.01962878	0.00000188	0.00000000	0.20541429	0.53486778	0.00000000	0.11149991	0.00000000	0.99772977	0.99999999
1.15000000	0.09175705	-0.10255535	-0.00881742	1.33518165	0.90753858	-0.20427906	0.30152714	0.09660244	-0.25305081	0.20037580	-0.01554457	0.01861229	-0.00040485	-0.43314324	-0.11251352	-0.12346802	0.30799850	0.21179262	0.02034670	-0.00088755	-0.15214181	0.16264774	-0.27179679	-0.20640070	-0.24524596	0.04835331	0.28052379	1.34264664	-0.00009351	0.00046255	-0.00126518	-0.23820971	-0.30163089	1.05685240	1.48160280	-0.00013359	0.00030875	0.20037580	0.30799850	0.31174073	0.00000039	0.00000042	0.06417803	0.14704516	0.22796370	0.00000073	0.21495141	0.00000000	0.43176716	0.56005801	0.00000000	0.06785767	0.00000000	0.92451649	1.00000000
1.16000000	0.09831373	-0.11899668	-0.00856047	1.34991562	0.90881560	-0.20196410	0.28620545	0.11631139	-0.25858128	0.21190482	-0.03438158	0.01861229	-0.00040485	-0.43671600	-0.13691442	-0.14245113	0.34446525	0.18445055	0.02034670	-0.00088755	-0.15497101	0.18049416	-0.26454170	-0.20351500	-0.24595807	0.04361370	0.28761465	1.34312680	-0.00009351	0.00046255	-0.00761192	-0.22975227	-0.29668775	1.04502985	1.48160436	-0.00013359	0.00030875	0.21190482	0.34446525	0.29377415	0.00000013	0.00000017	0.10118401	0.10227274	0.36334675	0.00000020	0.42005409	0.00000000	0.68570268	0.55749192	0.00000000	0.02811795	0.00000000	0.84716851	1.00000000
1.17000000	0.10578160	-0.13530641	-0.00859171	1.36447466	0.91041231	-0.19958262	0.27009010	0.13613725	-0.25967253	0.22552660	-0.04274277	0.01861229	-0.00040485	-0.43723823	-0.16216054	-0.16093002	0.38720950	0.15220918	0.02034670	-0.00088755	-0.15932913	0.19800690	-0.25598273	-0.19998501	-0.24629381	0.03904840	0.29626755	1.34375295	-0.00009351	0.00046255	-0.01366750	-0.22098107	-0.29171370	1.03072757	1.48160592	-0.00013359	0.00030875	0.22552660	0.38720950	0.26951281	0.00000022	0.00000034	0.13805076	0.05833646	0.47011942	0.00000031	0.60324367	0.00000000	0.93642279	0.52546858	0.00000000	0.00000000	0.00000000	0.77033533	1.00000000
1.18000000	0.11356924	-0.15097403	-0.00890567	1.37879852	0.91227029	-0.19714723	0.25396113	0.15549756	-0.25648816	0.24149991	-0.04121459	0.01861229	-0.00040485	-0.43358912	-0.18773229	-0.17715819	0.43665515	0.11485550	0.02034670	-0.00088755	-0.16461107	0.21458887	-0.24628716	-0.19577812	-0.24617618	0.03446360	0.30641774	1.34446209	-0.00009351	0.00046255	-0.01946602	-0.21201843	-0.28680321	1.01397233	1.48160749	-0.00013359	0.00030875	0.24149991	0.43665515	0.23849696	0.00000009	0.00000016	0.17459374	0.01313792	0.56071601	0.00000012	0.77079219	0.02457828	1.00000000	0.57206264	0.00000000	0.00000000	0.00000000	0.64197682	0.83095108
1.19000000	0.12028719	-0.16553139	-0.00975125	1.39283285	0.91426813	-0.19467123	0.23916764	0.17393716	-0.24955748	0.25902523	-0.03230097	0.01861229	-0.00040485	-0.42373428	-0.21302094	-0.18948198	0.49323428	0.07229477	0.02034670	-0.00088755	-0.16935136	0.22977708	-0.23524818	-0.19125150	-0.24553595	0.02842255	0.31841332	1.34516618	-0.00009351	0.00046255	-0.02486221	-0.20294170	-0.28147064	0.99451128	1.48160904	-0.00013359	0.00030875	0.25902523	0.49323428	0.19734297	0.00000009	0.00528720	0.17944937	0.00000007	0.65840083	0.04967730	0.99999948	0.12735551	1.00000000	0.69545120	0.00000000	0.00000000	0.00000000	0.45760022	0.51210952
1.20000000	0.12428941	-0.17833667	-0.01130523	1.40653219	0.91626082	-0.19218804	0.22711575	0.19078070	-0.23985617	0.27661172	-0.01914324	0.01861229	-0.00040485	-0.40538566	-0.23707805	-0.19599375	0.55694369	0.02453905	0.02034670	-0.00088755	-0.17175708	0.24299009	-0.22299571	-0.18671939	-0.24433549	0.01976669	0.33253615	1.34574599	-0.00009351	0.00046255	-0.02979084	-0.19382726	-0.27534752	0.97220000	1.48161060	-0.00013359	0.00030875	0.27661172	0.55694369	0.35095071	0.00000000	0.20327758	0.24428725	0.00000000	0.73144027	0.00000000	1.00000000	0.16166847	1.00000000	0.66675946	0.00000000	0.00000000	0.00000000	0.34284462	0.37093826
1.21000000	0.12498250	-0.18921008	-0.01294886	1.41989164	0.91817588	-0.18975675	0.21771365	0.20578684	-0.22928460	0.29206566	-0.00467923	0.01861229	-0.00040485	-0.37770099	-0.25954901	-0.19502365	0.62674044	-0.02833079	0.02034670	-0.00088755	-0.17095252	0.25411830	-0.21062306	-0.18213775	-0.24259352	0.00923768	0.34854179	1.34591088	-0.00009351	0.00046255	-0.03445337	-0.18484256	-0.26863910	0.94734351	1.48161216	-0.00013359	0.00030875	0.29206566	0.62674044	0.37396067	0.00000000	0.25946429	0.27530316	0.00000000	0.66954965	0.00000000	1.00000000	0.13528529	1.00000000	0.50648484	0.00000000	0.00000000	0.00000000	0.29917097	0.42771294
1.22000000	0.12296529	-0.19867695	-0.01360394	1.43293339	0.92002522	-0.18745183	0.20951924	0.21940005	-0.22023278	0.30324401	0.00906268	0.01861229	-0.00040485	-0.34157350	-0.28086791	-0.18627674	0.70060799	-0.08603437	0.02034670	-0.00088755	-0.16727651	0.26380063	-0.19922939	-0.17746289	-0.24045729	-0.00165452	0.36620412	1.34521756	-0.00009351	0.00046255	-0.03891188	-0.17619287	-0.26139874	0.92036755	1.48161371	-0.00013359	0.00030875	0.30324401	0.70060799	0.40836701	0.00000000	0.32698562	0.30567844	0.00000000	0.61708146	0.00000000	1.00000000	0.07206278	1.00000000	0.26187837	0.00000000	0.00000000	0.00000000	0.31189662	0.65163573
1.23000000	0.11929612	-0.20715102	-0.01252207	1.44567084	0.92185210	-0.18533803	0.20107356	0.23187151	-0.21449095	0.30916036	0.02137208	0.01861229	-0.00040485	-0.29883429	-0.30107046	-0.17057376	0.77588966	-0.14725389	0.02034670	-0.00088755	-0.16171072	0.27252595	-0.18936591	-0.17266233	-0.23818449	-0.01147392	0.38543222	1.34348017	-0.00009351	0.00046255	-0.04303980	-0.16805593	-0.25356946	0.89174813	1.48161528	-0.00013359	0.00030875	0.30916036	0.77588966	0.45553142	0.00000000	0.40479166	0.33568811	0.00000000	0.57030811	0.00000000	1.00000000	0.00820958	1.00000000	0.00000000	0.00000000	0.00000000	0.00000000	0.35256214	0.95843411
1.24000000	0.11499847	-0.21461858	-0.00940716	1.45810947	0.92369782	-0.18345179	0.19150565	0.24300403	-0.21285695	0.31011436	0.03246227	0.01861229	-0.00040485	-0.25156404	-0.31949786	-0.14901326	0.84985818	-0.20852754	0.02034670	-0.00088755	-0.15530839	0.28024948	-0.18115344	-0.16773163	-0.23594464	-0.01955611	0.40627070	1.34083570	-0.00009351	0.00046255	-0.04665585	-0.16062475	-0.24511723	0.86190891	1.48161683	-0.00013359	0.00030875	0.31011436	0.84985818	0.51515423	0.00000000	0.49222718	0.36517619	0.00000000	0.52424996	0.00000000	1.00000000	0.00000000	0.65278781	0.00000000	0.00000000	0.00000000	0.00000000	0.25375234	0.76239886
1.25000000	0.11102416	-0.22090976	-0.00418172	1.47024667	0.92560868	-0.18181754	0.18016902	0.25255333	-0.21532747	0.30702503	0.04287024	0.01861229	-0.00040485	-0.20158338	-0.33523093	-0.12261759	0.92060021	-0.26391647	0.02034670	-0.00088755	-0.14911610	0.28673270	-0.17416949	-0.16277894	-0.23373284	-0.02657124	0.42924238	1.33725941	-0.00009351	0.00046255	-0.04940961	-0.15409969	-0.23561138	0.83074002	1.48161839	-0.00013359	0.00030875	0.30702503	0.92060021	0.58943490	0.00000000	0.58865888	0.39528156	0.00000000	0.48125207	0.00000000	1.00000000	0.00000000	0.33068999	0.00000000	0.00000000	0.00000000	0.00000000	0.17505416	0.59289588
1.26000000	0.10841663	-0.22575183	0.00297104	1.48208355	0.92764506	-0.18043764	0.16645751	0.26024520	-0.22118514	0.30106707	0.05301722	0.01861229	-0.00040485	-0.15117208	-0.34731381	-0.09278373	0.98658254	-0.30672850	0.02034670	-0.00088755	-0.14439839	0.29163122	-0.16799575	-0.15763964	-0.23157895	-0.03268921	0.45425460	1.33289040	-0.00009351	0.00046255	-0.05107754	-0.14861683	-0.22505708	0.79844589	1.48161994	-0.00013359	0.00030875	0.30106707	0.98658254	0.66758771	0.00000000	0.69561909	0.42159622	0.00000000	0.42698071	0.00000000	1.00000000	0.00000000	0.03534822	0.00000000	0.00000000	0.00135473	0.00000000	0.11344074	0.43977704
1.27000000	0.10785491	-0.22894106	0.01144948	1.49364567	0.92984582	-0.17926925	0.15055978	0.26584695	-0.22927732	0.29372180	0.06301005	0.01861229	-0.00040485	-0.10308390	-0.35518783	-0.06160001	1.04622006	-0.33266458	0.02034670	-0.00088755	-0.14209225	0.29469134	-0.16277817	-0.15185661	-0.22968681	-0.03665397	0.47973796	1.32873002	-0.00009351	0.00046255	-0.05191738	-0.14418794	-0.21459446	0.76641711	1.48162150	-0.00013359	0.00030875	0.29372180	1.04622006	0.94430952	0.00000000	1.00000000	0.45396938	0.06093505	0.49802246	0.00000000	1.00000000	0.11587885	0.00000000	0.00000000	0.00000000	0.05537391	0.00000000	0.14282456	0.51438410
