ik_full
version=1
nRows=132
nColumns=40
inDegrees=no
endheader
time	pelvis_tilt	pelvis_list	pelvis_rotation	pelvis_tx	pelvis_ty	pelvis_tz	hip_flexion_r	hip_adduction_r	hip_rotation_r	knee_angle_r	ankle_angle_r	subtalar_angle_r	mtp_angle_r	hip_flexion_l	hip_adduction_l	hip_rotation_l	knee_angle_l	ankle_angle_l	subtalar_angle_l	mtp_angle_l	lumbar_extension	lumbar_bending	lumbar_rotation	arm_flex_r	arm_add_r	arm_rot_r	elbow_flex_r	pro_sup_r	wrist_flex_r	wrist_dev_r	arm_flex_l	arm_add_l	arm_rot_l	elbow_flex_l	pro_sup_l	wrist_flex_l	wrist_dev_l	knee_angle_r_beta	knee_angle_l_beta
0.00000000	0.03374683	0.03228861	-0.03518172	-0.13798945	0.87720925	-0.28395833	0.41027091	-0.00892679	-0.15667218	0.08883473	0.12542657	0.01861229	-0.00040485	-0.34723909	0.09740427	-0.10720523	0.11976471	0.32563970	0.02034670	-0.00088755	-0.16774406	0.00315627	-0.28483167	-0.15528210	-0.24103187	0.04057718	0.30473290	1.35641256	-0.00009351	0.00046255	0.04903194	-0.31037829	-0.31587783	1.03989749	1.48137470	-0.00013359	0.00030875	0.08883473	0.11976471
0.00992424	0.03877253	0.02089767	-0.03289381	-0.12151541	0.88343056	-0.28325518	0.39835697	0.00373639	-0.16474289	0.09601417	0.11172002	0.01861229	-0.00040485	-0.36734177	0.08436356	-0.10226044	0.11919423	0.31944076	0.02034670	-0.00088755	-0.17095932	0.01688750	-0.28280069	-0.15705788	-0.24382306	0.03739859	0.30191820	1.35581683	-0.00009351	0.00046255	0.04676156	-0.30701537	-0.31308682	1.04716043	1.48137700	-0.00013359	0.00030875	0.09601417	0.11919423
0.01984848	0.04189235	0.00741209	-0.03022465	-0.10465857	0.88865991	-0.28250038	0.39021100	0.01844706	-0.17790923	0.11286848	0.09387048	0.01861229	-0.00040485	-0.38626708	0.06797362	-0.10240890	0.12640057	0.31300723	0.02034670	-0.00088755	-0.17099414	0.03323798	-0.28096471	-0.15901400	-0.24727873	0.03426182	0.29780136	1.35521115	-0.00009351	0.00046255	0.04160184	-0.30259138	-0.31052058	1.05699437	1.48137929	-0.00013359	0.00030875	0.11286848	0.12640057
0.02977273	0.04310192	-0.00586551	-0.02759289	-0.08814712	0.89303426	-0.28167182	0.38698307	0.03234093	-0.19352850	0.13363830	0.07423109	0.01861229	-0.00040485	-0.39733323	0.05067963	-0.11092257	0.14237157	0.30830401	0.02034670	-0.00088755	-0.16881249	0.04917966	-0.27981994	-0.16021943	-0.25038590	0.03211941	0.29415099	1.35476090	-0.00009351	0.00046255	0.03497169	-0.29794414	-0.30892686	1.06542779	1.48138158	-0.00013359	0.00030875	0.13363830	0.14237157
0.03969697	0.04522173	-0.02141669	-0.02456691	-0.07176159	0.89689197	-0.28077873	0.38190941	0.04837402	-0.20892965	0.15255624	0.04927543	0.01861229	-0.00040485	-0.40572917	0.02983551	-0.12474183	0.16428423	0.30278797	0.02034670	-0.00088755	-0.16750625	0.06745696	-0.27845297	-0.16072793	-0.25331390	0.02986979	0.29143085	1.35419643	-0.00009351	0.00046255	0.02787524	-0.29247625	-0.30726791	1.07168739	1.48138388	-0.00013359	0.00030875	0.15255624	0.16428423
0.04962121	0.04821465	-0.03930405	-0.02139197	-0.05538612	0.90030311	-0.27978382	0.37401949	0.06701482	-0.22181579	0.16910246	0.01975232	0.01861229	-0.00040485	-0.41236071	0.00526896	-0.14199809	0.19200708	0.29434055	0.02034670	-0.00088755	-0.16692319	0.08811298	-0.27629152	-0.16055939	-0.25599430	0.02688970	0.28965088	1.35331010	-0.00009351	0.00046255	0.02023121	-0.28601343	-0.30518779	1.07562394	1.48138617	-0.00013359	0.00030875	0.16910246	0.19200708
0.05954545	0.05178101	-0.05873690	-0.01841760	-0.03914848	0.90331540	-0.27866913	0.36457183	0.08742572	-0.23192600	0.18479162	-0.00955336	0.01861229	-0.00040485	-0.41591495	-0.02229444	-0.16207260	0.22634785	0.28189953	0.02034670	-0.00088755	-0.16692884	0.11020311	-0.27303232	-0.15959534	-0.25822522	0.02292492	0.28914869	1.35201785	-0.00009351	0.00046255	0.01224348	-0.27868478	-0.30274483	1.07672450	1.48138847	-0.00013359	0.00030875	0.18479162	0.22634785
0.06946970	0.05642845	-0.07931143	-0.01573620	-0.02311688	0.90603105	-0.27745161	0.35358994	0.10905377	-0.23968638	0.20126650	-0.03385427	0.01861229	-0.00040485	-0.41682178	-0.05240337	-0.18295146	0.26725091	0.26433592	0.02034670	-0.00088755	-0.16830084	0.13328361	-0.26850112	-0.15769308	-0.25996869	0.01800337	0.28999862	1.35036701	-0.00009351	0.00046255	0.00420772	-0.27051850	-0.30005856	1.07504637	1.48139076	-0.00013359	0.00030875	0.20126650	0.26725091
0.07939394	0.06212366	-0.10037778	-0.01335043	-0.00734667	0.90850071	-0.27613904	0.34163063	0.13118127	-0.24505029	0.21995275	-0.04954118	0.01861229	-0.00040485	-0.41479982	-0.08448413	-0.20276275	0.31507773	0.24075936	0.02034670	-0.00088755	-0.17111274	0.15663548	-0.26250409	-0.15499960	-0.26113222	0.01199972	0.29221095	1.34846612	-0.00009351	0.00046255	-0.00363496	-0.26165813	-0.29698565	1.07067418	1.48139306	-0.00013359	0.00030875	0.21995275	0.31507773
0.08931818	0.06843943	-0.12196354	-0.01099546	0.00811954	0.91074432	-0.27473141	0.32934534	0.15395564	-0.24811555	0.24103103	-0.05539937	0.01861229	-0.00040485	-0.40866969	-0.11909982	-0.22102602	0.37092448	0.21046890	0.02034670	-0.00088755	-0.17481731	0.18028687	-0.25427475	-0.15248241	-0.26156395	0.00332950	0.29639092	1.34624557	-0.00009351	0.00046255	-0.01053212	-0.25231475	-0.29223829	1.06301284	1.48139535	-0.00013359	0.00030875	0.24103103	0.37092448
0.09924242	0.07410609	-0.14288209	-0.00883144	0.02323980	0.91270833	-0.27321762	0.31785248	0.17647005	-0.24800872	0.26345331	-0.05244832	0.01861229	-0.00040485	-0.39663526	-0.15483371	-0.23510679	0.43470057	0.17312506	0.02034670	-0.00088755	-0.17799591	0.20287697	-0.24373721	-0.15065400	-0.26101806	-0.00855917	0.30278020	1.34387019	-0.00009351	0.00046255	-0.01634583	-0.24289353	-0.28532320	1.05185878	1.48139765	-0.00013359	0.00030875	0.26345331	0.43470057
0.10916667	0.07685360	-0.16041289	-0.00761524	0.03795690	0.91425416	-0.27157178	0.30923573	0.19622318	-0.24336281	0.28576438	-0.04294862	0.01861229	-0.00040485	-0.37614338	-0.18770069	-0.24029538	0.50492790	0.12921820	0.02034670	-0.00088755	-0.17828744	0.22133984	-0.23204636	-0.14906080	-0.25926587	-0.02222574	0.31095778	1.34200660	-0.00009351	0.00046255	-0.02196908	-0.23392451	-0.27729605	1.03780209	1.48139994	-0.00013359	0.00030875	0.28576438	0.50492790
0.11909091	0.07533930	-0.17372491	-0.00739040	0.05224619	0.91531574	-0.26981395	0.30440569	0.21236427	-0.23520660	0.30622653	-0.02982537	0.01861229	-0.00040485	-0.34549320	-0.21618958	-0.23531190	0.58055998	0.08000948	0.02034670	-0.00088755	-0.17419571	0.23482202	-0.22009517	-0.14761569	-0.25638925	-0.03679806	0.32092774	1.34126407	-0.00009351	0.00046255	-0.02769034	-0.22565748	-0.26846888	1.02109002	1.48140224	-0.00013359	0.00030875	0.30622653	0.58055998
0.12901515	0.07043306	-0.18374213	-0.00721901	0.06612386	0.91599076	-0.26803644	0.30163270	0.22557219	-0.22647676	0.32282221	-0.01558003	0.01861229	-0.00040485	-0.30577410	-0.24097395	-0.22162491	0.65998458	0.02736987	0.02034670	-0.00088755	-0.16651533	0.24447192	-0.20872428	-0.14612354	-0.25280193	-0.05053050	0.33253654	1.34186890	-0.00009351	0.00046255	-0.03330281	-0.21810275	-0.25897111	1.00203975	1.48140453	-0.00013359	0.00030875	0.32282221	0.65998458
0.13893939	0.06373636	-0.19110738	-0.00616095	0.07962070	0.91642304	-0.26634214	0.29859021	0.23612696	-0.21968960	0.33410100	-0.00144968	0.01861229	-0.00040485	-0.25958996	-0.26205390	-0.20035170	0.74026631	-0.02583633	0.02034670	-0.00088755	-0.15689610	0.25110443	-0.19897577	-0.14398705	-0.24894964	-0.06106087	0.34540291	1.34359373	-0.00009351	0.00046255	-0.03884423	-0.21128854	-0.24944518	0.98130121	1.48140682	-0.00013359	0.00030875	0.33410100	0.74026631
0.14886364	0.05622979	-0.19635701	-0.00370934	0.09277140	0.91670402	-0.26480875	0.29417745	0.24420772	-0.21640631	0.33987899	0.01223712	0.01861229	-0.00040485	-0.20904291	-0.27934680	-0.17303334	0.81874588	-0.07541633	0.02034670	-0.00088755	-0.14634119	0.25542090	-0.19100812	-0.14127241	-0.24509947	-0.06870230	0.35999689	1.34588804	-0.00009351	0.00046255	-0.04406057	-0.20524040	-0.23966287	0.95894820	1.48140911	-0.00013359	0.00030875	0.33987899	0.81874588
0.15878788	0.04887882	-0.20002664	0.00033020	0.10561098	0.91692417	-0.26348715	0.28763572	0.25013556	-0.21715764	0.34083207	0.02548959	0.01861229	-0.00040485	-0.15625857	-0.29297128	-0.14177321	0.89339686	-0.11653005	0.02034670	-0.00088755	-0.13589626	0.25809446	-0.18442140	-0.13822311	-0.24145177	-0.07450124	0.37685026	1.34835016	-0.00009351	0.00046255	-0.04856242	-0.19993120	-0.22909972	0.93483783	1.48141141	-0.00013359	0.00030875	0.34083207	0.89339686
0.16871212	0.04289704	-0.20249345	0.00592434	0.11817527	0.91719588	-0.26239472	0.27798807	0.25429164	-0.22150165	0.33787844	0.03833996	0.01861229	-0.00040485	-0.10367435	-0.30307100	-0.10858073	0.96260115	-0.14505379	0.02034670	-0.00088755	-0.12695539	0.25957649	-0.17885339	-0.13469314	-0.23824559	-0.07820839	0.39584044	1.35078677	-0.00009351	0.00046255	-0.05220917	-0.19530554	-0.21766697	0.90909095	1.48141370	-0.00013359	0.00030875	0.33787844	0.96260115
0.17863636	0.03915028	-0.20405661	0.01274971	0.13049848	0.91760569	-0.26150999	0.26463715	0.25718817	-0.22830392	0.33198322	0.05068290	0.01861229	-0.00040485	-0.05319390	-0.31002535	-0.07538248	1.02538978	-0.15876550	0.02034670	-0.00088755	-0.12057409	0.26021159	-0.17376573	-0.13051739	-0.23569213	-0.07943900	0.41664492	1.35303760	-0.00009351	0.00046255	-0.05497860	-0.19128907	-0.20535455	0.88188135	1.48141598	-0.00013359	0.00030875	0.33198322	1.02538978
0.18856061	0.03818829	-0.20482676	0.02022146	0.14261231	0.91821534	-0.26077352	0.24722032	0.25930531	-0.23592637	0.32393417	0.06228697	0.01861229	-0.00040485	-0.00624142	-0.31426904	-0.04395226	1.08119140	-0.15802822	0.02034670	-0.00088755	-0.11750957	0.26009616	-0.16859765	-0.12541898	-0.23397391	-0.07750712	0.43867216	1.35491020	-0.00009351	0.00046255	-0.05704120	-0.18778846	-0.19253969	0.85360238	1.48141827	-0.00013359	0.00030875	0.32393417	1.08119140
0.19848485	0.04006909	-0.20476743	0.02763048	0.15454248	0.91904539	-0.26010468	0.22581122	0.26098778	-0.24268599	0.31427769	0.07289832	0.01861229	-0.00040485	0.03650297	-0.31622052	-0.01567065	1.12971967	-0.14555391	0.02034670	-0.00088755	-0.11799131	0.25911924	-0.16282208	-0.11916642	-0.23318725	-0.07192903	0.46127445	1.35609523	-0.00009351	0.00046255	-0.05867429	-0.18471803	-0.17981471	0.82478456	1.48142056	-0.00013359	0.00030875	0.31427769	1.12971967
0.20840909	0.04396122	-0.20381926	0.03422999	0.16630318	0.92003927	-0.25941809	0.20148800	0.26241504	-0.24726221	0.30350438	0.08236990	0.01861229	-0.00040485	0.07566556	-0.31632175	0.00859927	1.17111942	-0.12536661	0.02034670	-0.00088755	-0.12123157	0.25710823	-0.15587022	-0.11188749	-0.23325709	-0.06349633	0.48412940	1.35653245	-0.00009351	0.00046255	-0.06011192	-0.18199089	-0.16764242	0.79586305	1.48142284	-0.00013359	0.00030875	0.30350438	1.17111942
0.21833333	0.04880018	-0.20192118	0.03941437	0.17790939	0.92111388	-0.25864283	0.17554059	0.26359851	-0.24884742	0.29196227	0.09071604	0.01861229	-0.00040485	0.11228475	-0.31494862	0.02842905	1.20568771	-0.10163901	0.02034670	-0.00088755	-0.12612152	0.25386442	-0.14727426	-0.10388874	-0.23399775	-0.05366628	0.50710387	1.35639489	-0.00009351	0.00046255	-0.06156437	-0.17952235	-0.15641938	0.76724865	1.48142512	-0.00013359	0.00030875	0.29196227	1.20568771
0.22825758	0.05386019	-0.19904594	0.04287704	0.18938673	0.92220533	-0.25774460	0.14879626	0.26443545	-0.24726363	0.27979247	0.09809150	0.01861229	-0.00040485	0.14703763	-0.31238161	0.04378041	1.23365578	-0.07774119	0.02034670	-0.00088755	-0.13183550	0.24925972	-0.13656696	-0.09569635	-0.23514168	-0.04447851	0.53044197	1.35540645	-0.00009351	0.00046255	-0.06307210	-0.17728231	-0.14605921	0.73918046	1.48142740	-0.00013359	0.00030875	0.27979247	1.23365578
0.23818182	0.05855721	-0.19517539	0.04451027	0.20076224	0.92325456	-0.25671824	0.12196873	0.26470135	-0.24277329	0.26718216	0.10477651	0.01861229	-0.00040485	0.18045656	-0.30877267	0.05490498	1.25526112	-0.05579545	0.02034670	-0.00088755	-0.13764331	0.24323022	-0.12348561	-0.08784878	-0.23642263	-0.03795203	0.55450242	1.35345026	-0.00009351	0.00046255	-0.06469783	-0.17521104	-0.13649241	0.71188539	1.48142968	-0.00013359	0.00030875	0.26718216	1.25526112
0.24810606	0.06241792	-0.19030305	0.04435817	0.21205730	0.92420700	-0.25557655	0.09574498	0.26410855	-0.23590435	0.25443819	0.11109409	0.01861229	-0.00040485	0.21297094	-0.30415469	0.06225111	1.27073069	-0.03674954	0.02034670	-0.00088755	-0.14290905	0.23577104	-0.10837385	-0.08045867	-0.23772505	-0.03474995	0.57914285	1.35137784	-0.00009351	0.00046255	-0.06681815	-0.17314919	-0.12839431	0.68586035	1.48143194	-0.00013359	0.00030875	0.25443819	1.27073069
0.25803030	0.06521807	-0.18450883	0.04267485	0.22328784	0.92502492	-0.25435449	0.07057925	0.26245046	-0.22746522	0.24183757	0.11728571	0.01861229	-0.00040485	0.24477801	-0.29855770	0.06643678	1.28022446	-0.02064771	0.02034670	-0.00088755	-0.14724920	0.22703736	-0.09187170	-0.07343772	-0.23904108	-0.03472689	0.60404821	1.35009767	-0.00009351	0.00046255	-0.06982674	-0.17097062	-0.12237358	0.66150828	1.48143422	-0.00013359	0.00030875	0.24183757	1.28022446
0.26795455	0.06695530	-0.17791327	0.03980322	0.23446244	0.92568815	-0.25309814	0.04667670	0.25961602	-0.21826668	0.22958804	0.12348983	0.01861229	-0.00040485	0.27583980	-0.29202375	0.06806485	1.28381612	-0.00696634	0.02034670	-0.00088755	-0.15055213	0.21727471	-0.07446566	-0.06677888	-0.24035685	-0.03784749	0.62915367	1.34971318	-0.00009351	0.00046255	-0.07385679	-0.16867106	-0.11837774	0.63885206	1.48143649	-0.00013359	0.00030875	0.22958804	1.28381612
0.27787879	0.06769750	-0.17071080	0.03609211	0.24557862	0.92618241	-0.25184767	0.02416478	0.25565455	-0.20894153	0.21786706	0.12973634	0.01861229	-0.00040485	0.30609218	-0.28466823	0.06767826	1.28156330	0.00505380	0.02034670	-0.00088755	-0.15283646	0.20680811	-0.05679946	-0.06023149	-0.24173212	-0.04340883	0.65422533	1.34992358	-0.00009351	0.00046255	-0.07903276	-0.16625064	-0.11654854	0.61784883	1.48143869	-0.00013359	0.00030875	0.21786706	1.28156330
0.28780303	0.06750395	-0.16324985	0.03191850	0.25662506	0.92649145	-0.25063389	0.00317521	0.25086153	-0.20000864	0.20682062	0.13594951	0.01861229	-0.00040485	0.33559023	-0.27676795	0.06584975	1.27358638	0.01613652	0.02034670	-0.00088755	-0.15414362	0.19611605	-0.03986788	-0.05316579	-0.24335250	-0.04967663	0.67861433	1.35056846	-0.00009351	0.00046255	-0.08559222	-0.16364339	-0.11760944	0.59855543	1.48144102	-0.00013359	0.00030875	0.20682062	1.27358638
0.29772727	0.06653631	-0.15578616	0.02753904	0.26759485	0.92661036	-0.24947816	-0.01637634	0.24551635	-0.19169334	0.19651269	0.14211389	0.01861229	-0.00040485	0.36418860	-0.26856311	0.06291760	1.25995011	0.02678690	0.02034670	-0.00088755	-0.15465925	0.18556159	-0.02409947	-0.04531050	-0.24527091	-0.05586810	0.70203770	1.35151770	-0.00009351	0.00046255	-0.09339220	-0.16087232	-0.12164350	0.58071632	1.48144348	-0.00013359	0.00030875	0.19651269	1.25995011
0.30765152	0.06513479	-0.14826472	0.02297672	0.27849495	0.92655587	-0.24838851	-0.03492907	0.23961986	-0.18385451	0.18689145	0.14838420	0.01861229	-0.00040485	0.39128954	-0.26009633	0.05873553	1.24053481	0.03720288	0.02034670	-0.00088755	-0.15478845	0.17513440	-0.00893015	-0.03708824	-0.24728220	-0.06298168	0.72492424	1.35247836	-0.00009351	0.00046255	-0.10177896	-0.15810158	-0.12778993	0.56376307	1.48144495	-0.00013359	0.00030875	0.18689145	1.24053481
0.31757576	0.06360735	-0.14074825	0.01827367	0.28933166	0.92634126	-0.24736745	-0.05288334	0.23330871	-0.17645498	0.17790175	0.15483625	0.01861229	-0.00040485	0.41639923	-0.25153967	0.05322465	1.21532384	0.04728465	0.02034670	-0.00088755	-0.15489463	0.16493511	0.00590416	-0.02866168	-0.24930048	-0.07121966	0.74739560	1.35326151	-0.00009351	0.00046255	-0.11035366	-0.15543742	-0.13551497	0.54749099	1.48144754	-0.00013359	0.00030875	0.17790175	1.21532384
0.32750000	0.06199328	-0.13373363	0.01366099	0.30010079	0.92595081	-0.24642233	-0.07022233	0.22718094	-0.16980145	0.16959087	0.16130951	0.01861229	-0.00040485	0.43965525	-0.24337051	0.04686156	1.18470232	0.05678487	0.02034670	-0.00088755	-0.15502208	0.15555490	0.01968201	-0.01947528	-0.25156395	-0.07881078	0.76879346	1.35399212	-0.00009351	0.00046255	-0.11932707	-0.15284966	-0.14484660	0.53221919	1.48145315	-0.00013359	0.00030875	0.16959087	1.18470232
0.33742424	0.06034024	-0.12731672	0.00916115	0.31081709	0.92537755	-0.24554818	-0.08706596	0.22139199	-0.16392565	0.16189002	0.16782518	0.01861229	-0.00040485	0.46092573	-0.23572370	0.03966653	1.14888912	0.06546720	0.02034670	-0.00088755	-0.15520499	0.14708395	0.03236168	-0.00951632	-0.25411352	-0.08526372	0.78895269	1.35478192	-0.00009351	0.00046255	-0.12871205	-0.15038150	-0.15536818	0.51816226	1.48144744	-0.00013359	0.00030875	0.16189002	1.14888912
0.34734848	0.05891544	-0.12088842	0.00448314	0.32151941	0.92464629	-0.24472230	-0.10398375	0.21531781	-0.15840295	0.15451638	0.17469624	0.01861229	-0.00040485	0.47934977	-0.22818622	0.03079525	1.10765262	0.07312111	0.02034670	-0.00088755	-0.15572584	0.13874818	0.04501507	0.00036022	-0.25661884	-0.09226380	0.80860477	1.35551724	-0.00009351	0.00046255	-0.13807344	-0.14821923	-0.16607202	0.50521097	1.48144666	-0.00013359	0.00030875	0.15451638	1.10765262
0.35727273	0.05775834	-0.11432014	-0.00039729	0.33222584	0.92375444	-0.24393765	-0.12112213	0.20884686	-0.15310409	0.14733017	0.18194027	0.01861229	-0.00040485	0.49474587	-0.22061625	0.02015441	1.06126468	0.07960491	0.02034670	-0.00088755	-0.15663402	0.13035615	0.05766461	0.00999160	-0.25902527	-0.09980757	0.82791806	1.35619428	-0.00009351	0.00046255	-0.14742517	-0.14643654	-0.17622269	0.49336902	1.48149536	-0.00013359	0.00030875	0.14733017	1.06126468
0.36719697	0.05674938	-0.10782125	-0.00529294	0.34294426	0.92268182	-0.24320085	-0.13831582	0.20222606	-0.14812085	0.14029884	0.18933598	0.01861229	-0.00040485	0.50743325	-0.21303183	0.00822426	1.01035553	0.08480750	0.02034670	-0.00088755	-0.15777557	0.12213854	0.06950463	0.01977447	-0.26150123	-0.10646337	0.84649542	1.35697836	-0.00009351	0.00046255	-0.15708626	-0.14499983	-0.18551721	0.48267022	1.48142842	-0.00013359	0.00030875	0.14029884	1.01035553
0.37712121	0.05619343	-0.10085424	-0.01027874	0.35371180	0.92145964	-0.24250642	-0.15605854	0.19486441	-0.14318664	0.13315333	0.19689719	0.01861229	-0.00040485	0.51673316	-0.20486154	-0.00540921	0.95489005	0.08853689	0.02034670	-0.00088755	-0.15941174	0.11344010	0.08068426	0.02944485	-0.26390066	-0.11243663	0.86445372	1.35794768	-0.00009351	0.00046255	-0.16686981	-0.14399570	-0.19362083	0.47279006	1.48084047	-0.00013359	0.00030875	0.13315333	0.95489005
0.38704545	0.05624331	-0.09323252	-0.01527133	0.36455415	0.92010217	-0.24187040	-0.17457945	0.18655672	-0.13819199	0.12575581	0.20450593	0.01861229	-0.00040485	0.52244963	-0.19565134	-0.02035399	0.89524945	0.09093544	0.02034670	-0.00088755	-0.16165152	0.10407672	0.09113895	0.03887315	-0.26617461	-0.11779588	0.88183317	1.35917110	-0.00009351	0.00046255	-0.17657168	-0.14340929	-0.20024939	0.46327436	1.47950537	-0.00013359	0.00030875	0.12575581	0.89524945
0.39696970	0.05626033	-0.08586633	-0.01980470	0.37546470	0.91854507	-0.24134445	-0.19292357	0.17832371	-0.13352083	0.11842954	0.21179001	0.01861229	-0.00040485	0.52609414	-0.18566697	-0.03446198	0.83289602	0.09266136	0.02034670	-0.00088755	-0.16376160	0.09523586	0.09988244	0.04851179	-0.26864085	-0.12126665	0.89815574	1.36076744	-0.00009351	0.00046255	-0.18638330	-0.14295223	-0.20553864	0.45381821	1.47758843	-0.00013359	0.00030875	0.11842954	0.83289602
0.40689394	0.05585862	-0.07906965	-0.02370864	0.38645921	0.91676474	-0.24095922	-0.21050152	0.17049505	-0.12939019	0.11149687	0.21876819	0.01861229	-0.00040485	0.52834365	-0.17488230	-0.04645992	0.76855633	0.09421805	0.02034670	-0.00088755	-0.16527799	0.08736566	0.10682832	0.05826259	-0.27137352	-0.12287913	0.91332953	1.36274264	-0.00009351	0.00046255	-0.19620505	-0.14247195	-0.20973131	0.44412756	1.47545598	-0.00013359	0.00030875	0.11149687	0.76855633
0.41681818	0.05555487	-0.07218873	-0.02718936	0.39757830	0.91483371	-0.24071378	-0.22788391	0.16226794	-0.12576159	0.10511779	0.22579532	0.01861229	-0.00040485	0.52807631	-0.16268004	-0.05637643	0.70193243	0.09581491	0.02034670	-0.00088755	-0.16676089	0.07970077	0.11281842	0.06757953	-0.27414572	-0.12390355	0.92770121	1.36500444	-0.00009351	0.00046255	-0.20556957	-0.14210511	-0.21260503	0.43391738	1.47348794	-0.00013359	0.00030875	0.10511779	0.70193243
0.42674242	0.05555342	-0.06511478	-0.03032512	0.40884927	0.91279414	-0.24060828	-0.24514734	0.15345524	-0.12277027	0.09969359	0.23304621	0.01861229	-0.00040485	0.52488475	-0.14900577	-0.06373428	0.63331164	0.09781826	0.02034670	-0.00088755	-0.16844347	0.07210835	0.11821472	0.07626063	-0.27692526	-0.12467756	0.94132721	1.36739826	-0.00009351	0.00046255	-0.21429692	-0.14189594	-0.21392214	0.42318451	1.47195089	-0.00013359	0.00030875	0.09969359	0.63331164
0.43666667	0.05571303	-0.05803749	-0.03318706	0.42029917	0.91065889	-0.24063474	-0.26192724	0.14421982	-0.12064147	0.09572904	0.24059258	0.01861229	-0.00040485	0.51897278	-0.13424341	-0.06814390	0.56334629	0.10040664	0.02034670	-0.00088755	-0.17012618	0.06478956	0.12321080	0.08416453	-0.27977592	-0.12509255	0.95412201	1.36976760	-0.00009351	0.00046255	-0.22238617	-0.14182293	-0.21350786	0.41210057	1.47097999	-0.00013359	0.00030875	0.09572904	0.56334629
0.44659091	0.05715486	-0.05006699	-0.03622081	0.43197950	0.90855748	-0.24075642	-0.27949815	0.13343980	-0.11949458	0.09327364	0.24856901	0.01861229	-0.00040485	0.50852746	-0.11792110	-0.07069145	0.49181196	0.10289701	0.02034670	-0.00088755	-0.17297996	0.05659562	0.12850569	0.09099043	-0.28250894	-0.12570626	0.96626845	1.37228006	-0.00009351	0.00046255	-0.22954991	-0.14215384	-0.21040686	0.40064063	1.47070177	-0.00013359	0.00030875	0.09327364	0.49181196
0.45651515	0.06106130	-0.04041798	-0.03996520	0.44393729	0.90661762	-0.24092056	-0.29928903	0.12009556	-0.11931543	0.09217143	0.25689215	0.01861229	-0.00040485	0.49190693	-0.09973156	-0.07294884	0.41889218	0.10434207	0.02034670	-0.00088755	-0.17825623	0.04644725	0.13458185	0.09667289	-0.28493362	-0.12676890	0.97780042	1.37533889	-0.00009351	0.00046255	-0.23568236	-0.14301998	-0.20421896	0.38893136	1.47109675	-0.00013359	0.00030875	0.09217143	0.41889218
0.46643939	0.06673149	-0.02982623	-0.04466316	0.45618838	0.90479171	-0.24108213	-0.32047956	0.10497439	-0.11998377	0.09255241	0.26515838	0.01861229	-0.00040485	0.47073232	-0.08081569	-0.07567399	0.34662302	0.10431433	0.02034670	-0.00088755	-0.18508295	0.03509062	0.14125731	0.10136851	-0.28714057	-0.12762818	0.98831131	1.37908333	-0.00009351	0.00046255	-0.24125963	-0.14399665	-0.19654221	0.37759409	1.47183671	-0.00013359	0.00030875	0.09255241	0.34662302
0.47636364	0.07357445	-0.01875432	-0.05059817	0.46876076	0.90304341	-0.24120419	-0.34240868	0.08851848	-0.12153285	0.09443068	0.27305723	0.01861229	-0.00040485	0.44646235	-0.06182874	-0.07933725	0.27698246	0.10222807	0.02034670	-0.00088755	-0.19259430	0.02296760	0.14855084	0.10500900	-0.28915246	-0.12806075	0.99753354	1.38345751	-0.00009351	0.00046255	-0.24666124	-0.14477345	-0.18893141	0.36710116	1.47272353	-0.00013359	0.00030875	0.09443068	0.27698246
0.48628788	0.08159058	-0.00713340	-0.05790389	0.48167965	0.90138436	-0.24126063	-0.36518193	0.07061974	-0.12405013	0.09753249	0.28026475	0.01861229	-0.00040485	0.41985107	-0.04275135	-0.08436868	0.21205411	0.09797297	0.02034670	-0.00088755	-0.20062036	0.00991019	0.15657557	0.10742580	-0.29081225	-0.12839034	1.00543026	1.38818821	-0.00009351	0.00046255	-0.25198668	-0.14536176	-0.18203605	0.35760567	1.47384827	-0.00013359	0.00030875	0.09753249	0.21205411
0.49621212	0.08883593	0.00363117	-0.06579851	0.49489257	0.89965162	-0.24126293	-0.38662166	0.05321138	-0.12723208	0.10181831	0.28602070	0.01861229	-0.00040485	0.39520731	-0.02517150	-0.09070553	0.15653164	0.09363203	0.02034670	-0.00088755	-0.20710137	-0.00237013	0.16462352	0.10868262	-0.29211162	-0.12834198	1.01167311	1.39231143	-0.00009351	0.00046255	-0.25755758	-0.14552585	-0.17716987	0.34947914	1.47499906	-0.00013359	0.00030875	0.10181831	0.15653164
0.50613636	0.09371008	0.01263903	-0.07356530	0.50836209	0.89773005	-0.24123161	-0.40490545	0.03764621	-0.13097336	0.10732200	0.28980350	0.01861229	-0.00040485	0.37585018	-0.01013743	-0.09801090	0.11390391	0.09112729	0.02034670	-0.00088755	-0.21032267	-0.01271010	0.17214444	0.10873775	-0.29299474	-0.12770900	1.01596214	1.39499484	-0.00009351	0.00046255	-0.26356600	-0.14520410	-0.17505786	0.34294466	1.47581773	-0.00013359	0.00030875	0.10732200	0.11390391
0.51606061	0.09776340	0.02146759	-0.08152745	0.52214582	0.89578160	-0.24114517	-0.42187917	0.02205823	-0.13588667	0.11369030	0.29175370	0.01861229	-0.00040485	0.35930080	0.00407086	-0.10610596	0.08312146	0.08981858	0.02034670	-0.00088755	-0.21179871	-0.02302074	0.17950260	0.10736680	-0.29308764	-0.12704914	1.01842012	1.39660178	-0.00009351	0.00046255	-0.26972512	-0.14495030	-0.17454919	0.33771659	1.47644879	-0.00013359	0.00030875	0.11369030	0.08312146
0.52598485	0.10235323	0.03132898	-0.08987188	0.53626773	0.89396834	-0.24099284	-0.43917353	0.00504523	-0.14242904	0.12055196	0.29185057	0.01861229	-0.00040485	0.34360861	0.01880785	-0.11518677	0.06319241	0.08887413	0.02034670	-0.00088755	-0.21293271	-0.03479590	0.18665110	0.10468259	-0.29206577	-0.12655078	1.01904828	1.39779164	-0.00009351	0.00046255	-0.27588275	-0.14513546	-0.17497635	0.33367128	1.47721028	-0.00013359	0.00030875	0.12055196	0.06319241
0.53590909	0.10678680	0.04186342	-0.09817020	0.55068838	0.89225020	-0.24079640	-0.45598544	-0.01278070	-0.15051351	0.12791166	0.28978822	0.01861229	-0.00040485	0.33022072	0.03371033	-0.12556765	0.05463329	0.08809212	0.02034670	-0.00088755	-0.21303497	-0.04752441	0.19287071	0.10105375	-0.28990046	-0.12568297	1.01749818	1.39864767	-0.00009351	0.00046255	-0.28226178	-0.14558657	-0.17710415	0.33103078	1.47813823	-0.00013359	0.00030875	0.12791166	0.05463329
0.54583333	0.11022781	0.05275074	-0.10607466	0.56537771	0.89059004	-0.24059359	-0.47120409	-0.03090921	-0.16003262	0.13605671	0.28553929	0.01861229	-0.00040485	0.32013054	0.04850103	-0.13694737	0.05628575	0.08598140	0.02034670	-0.00088755	-0.21123773	-0.06066114	0.19774567	0.09664379	-0.28668969	-0.12407939	1.01351308	1.39908043	-0.00009351	0.00046255	-0.28900745	-0.14607793	-0.18154718	0.32987122	1.47912873	-0.00013359	0.00030875	0.13605671	0.05628575
0.55575758	0.11237445	0.06406179	-0.11338337	0.58032112	0.88899447	-0.24042385	-0.48433892	-0.04936609	-0.17107518	0.14546102	0.27930722	0.01861229	-0.00040485	0.31302801	0.06339725	-0.14824357	0.06521842	0.07983639	0.02034670	-0.00088755	-0.20728947	-0.07412645	0.20128751	0.09136607	-0.28254616	-0.12188991	1.00715853	1.39909439	-0.00009351	0.00046255	-0.29596092	-0.14654034	-0.18821524	0.33001278	1.48007563	-0.00013359	0.00030875	0.14546102	0.06521842
0.56568182	0.11352785	0.07617067	-0.12006446	0.59550199	0.88751430	-0.24032011	-0.49557067	-0.06863350	-0.18380376	0.15663971	0.27119256	0.01861229	-0.00040485	0.30775847	0.07901708	-0.15832943	0.07797949	0.06714675	0.02034670	-0.00088755	-0.20161319	-0.08825681	0.20381422	0.08497575	-0.27756922	-0.11969880	0.99879986	1.39874420	-0.00009351	0.00046255	-0.30267971	-0.14704269	-0.19647304	0.33108846	1.48086153	-0.00013359	0.00030875	0.15663971	0.07797949
0.57560606	0.11432678	0.08965163	-0.12614732	0.61083070	0.88624697	-0.24030947	-0.50453082	-0.08948305	-0.19852348	0.17031547	0.26115532	0.01861229	-0.00040485	0.30296287	0.09617218	-0.16667046	0.09158538	0.04663364	0.02034670	-0.00088755	-0.19508389	-0.10368634	0.20575204	0.07722047	-0.27181423	-0.11833353	0.98894525	1.39815478	-0.00009351	0.00046255	-0.30846568	-0.14776854	-0.20535445	0.33262695	1.48135597	-0.00013359	0.00030875	0.17031547	0.09158538
0.58553030	0.11467695	0.10470325	-0.13109656	0.62614077	0.88524311	-0.24043267	-0.50950491	-0.11203908	-0.21590913	0.18778081	0.24917169	0.01861229	-0.00040485	0.29878099	0.11506176	-0.17323278	0.10489231	0.01908975	0.02034670	-0.00088755	-0.18805788	-0.12058950	0.20701234	0.06805352	-0.26524165	-0.11849703	0.97796146	1.39753466	-0.00009351	0.00046255	-0.31254543	-0.14894283	-0.21407385	0.33425888	1.48153318	-0.00013359	0.00030875	0.18778081	0.10489231
0.59545455	0.11429796	0.12121997	-0.13420255	0.64137918	0.88449077	-0.24071224	-0.51042672	-0.13598905	-0.23616681	0.21006899	0.23487960	0.01861229	-0.00040485	0.29595474	0.13538148	-0.17836984	0.11850026	-0.01198477	0.02034670	-0.00088755	-0.18064724	-0.13881837	0.20711802	0.05757079	-0.25770959	-0.12051870	0.96597391	1.39709155	-0.00009351	0.00046255	-0.31443606	-0.15077538	-0.22200476	0.33571866	1.48149534	-0.00013359	0.00030875	0.21006899	0.11850026
0.60537879	0.11409070	0.13914863	-0.13558960	0.65662262	0.88403005	-0.24110792	-0.50996239	-0.16139978	-0.25793882	0.23708462	0.21722838	0.01861229	-0.00040485	0.29364063	0.15692886	-0.18285156	0.13340891	-0.04120233	0.02034670	-0.00088755	-0.17388412	-0.15846995	0.20591754	0.04595133	-0.24912809	-0.12431320	0.95300230	1.39685049	-0.00009351	0.00046255	-0.31403344	-0.15334829	-0.22844145	0.33678821	1.48130239	-0.00013359	0.00030875	0.23708462	0.13340891
0.61530303	0.11535291	0.15862179	-0.13585283	0.67189853	0.88394515	-0.24156164	-0.51015373	-0.18883522	-0.28000921	0.26880386	0.19500177	0.01861229	-0.00040485	0.29045215	0.17981486	-0.18753159	0.15052596	-0.06374978	0.02034670	-0.00088755	-0.16911360	-0.17994461	0.20314472	0.03371147	-0.23950765	-0.12909360	0.93881325	1.39674741	-0.00009351	0.00046255	-0.31159888	-0.15651991	-0.23352526	0.33772348	1.48099033	-0.00013359	0.00030875	0.26880386	0.15052596
0.62522727	0.11838253	0.17982181	-0.13526138	0.68715920	0.88426458	-0.24205385	-0.51054057	-0.21893629	-0.30256049	0.30619240	0.16723720	0.01861229	-0.00040485	0.28614085	0.20428369	-0.19264749	0.17048326	-0.07691080	0.02034670	-0.00088755	-0.16660911	-0.20355965	0.19792538	0.02158270	-0.22892552	-0.13333067	0.92278394	1.39689216	-0.00009351	0.00046255	-0.30785222	-0.15995289	-0.23885341	0.33943151	1.48074859	-0.00013359	0.00030875	0.30619240	0.17048326
0.63515152	0.12221129	0.20135183	-0.13359018	0.70228391	0.88496886	-0.24260336	-0.50823619	-0.25018380	-0.32349734	0.34982942	0.13323508	0.01861229	-0.00040485	0.28127428	0.22899109	-0.19673731	0.19307180	-0.07976411	0.02034670	-0.00088755	-0.16551075	-0.22758809	0.18992836	0.00975685	-0.21781925	-0.13607014	0.90466790	1.39724546	-0.00009351	0.00046255	-0.30328888	-0.16317981	-0.24544798	0.34247148	1.48083885	-0.00013359	0.00030875	0.34982942	0.19307180
0.64507576	0.12519032	0.22052649	-0.13038450	0.71715680	0.88599348	-0.24324725	-0.49980612	-0.27925211	-0.33819183	0.39952715	0.09263850	0.01861229	-0.00040485	0.27650577	0.25132732	-0.19738354	0.21692893	-0.07332925	0.02034670	-0.00088755	-0.16441360	-0.24867682	0.17981916	-0.00217023	-0.20695951	-0.13735105	0.88484895	1.39737104	-0.00009351	0.00046255	-0.29788063	-0.16576260	-0.25271889	0.34671132	1.48121322	-0.00013359	0.00030875	0.39952715	0.21692893
0.65500000	0.12601703	0.23649294	-0.12560620	0.73181020	0.88721161	-0.24400804	-0.48377184	-0.30519325	-0.34470102	0.45566811	0.04547851	0.01861229	-0.00040485	0.27211017	0.27066378	-0.19380204	0.23969213	-0.06085860	0.02034670	-0.00088755	-0.16181083	-0.26562840	0.16811940	-0.01433407	-0.19690918	-0.13663182	0.86336433	1.39700234	-0.00009351	0.00046255	-0.29200092	-0.16741842	-0.26070883	0.35245050	1.48150058	-0.00013359	0.00030875	0.45566811	0.23969213
0.66492424	0.12408840	0.24981069	-0.11982434	0.74629722	0.88850562	-0.24486187	-0.45966009	-0.32886802	-0.34313394	0.51865253	-0.00762327	0.01861229	-0.00040485	0.26792809	0.28772358	-0.18702160	0.25885308	-0.04609403	0.02034670	-0.00088755	-0.15663959	-0.27903975	0.15537887	-0.02656559	-0.18799678	-0.13312056	0.84014852	1.39614270	-0.00009351	0.00046255	-0.28617318	-0.16803507	-0.26983137	0.36021100	1.48154521	-0.00013359	0.00030875	0.51865253	0.25885308
0.67484848	0.11916417	0.26050374	-0.11395087	0.76056546	0.88979989	-0.24573658	-0.42662824	-0.35021941	-0.33258815	0.58767704	-0.06535702	0.01861229	-0.00040485	0.26383530	0.30236546	-0.17867060	0.27273442	-0.03140355	0.02034670	-0.00088755	-0.14842345	-0.28902586	0.14296295	-0.03888718	-0.18055619	-0.12694331	0.81582122	1.39457356	-0.00009351	0.00046255	-0.28026614	-0.16776111	-0.27862441	0.36966891	1.48151784	-0.00013359	0.00030875	0.58767704	0.27273442
0.68477273	0.11154723	0.26876817	-0.10897415	0.77455688	0.89104609	-0.24654180	-0.38487298	-0.36911057	-0.31307995	0.66090328	-0.12548712	0.01861229	-0.00040485	0.25960511	0.31448778	-0.17053564	0.28065214	-0.01784282	0.02034670	-0.00088755	-0.13732654	-0.29596123	0.13212517	-0.05129423	-0.17479353	-0.11837135	0.79120314	1.39207205	-0.00009351	0.00046255	-0.27400129	-0.16693557	-0.28511644	0.38025264	1.48152075	-0.00013359	0.00030875	0.66090328	0.28065214
0.69469697	0.10269551	0.27511810	-0.10559821	0.78825706	0.89227678	-0.24720303	-0.33703021	-0.38557581	-0.28677127	0.73555653	-0.18425560	0.01861229	-0.00040485	0.25392906	0.32451556	-0.16362260	0.28259682	-0.00571693	0.02034670	-0.00088755	-0.12489027	-0.30062185	0.12315763	-0.06363656	-0.17067714	-0.10780887	0.76713644	1.38893589	-0.00009351	0.00046255	-0.26719241	-0.16589134	-0.28849467	0.39183656	1.48152784	-0.00013359	0.00030875	0.73555653	0.28259682
0.70462121	0.09357235	0.27997359	-0.10420643	0.80165002	0.89350181	-0.24765690	-0.28516063	-0.39947412	-0.25561195	0.80927573	-0.23671497	0.01861229	-0.00040485	0.24640332	0.33270717	-0.15852797	0.27945776	0.00519508	0.02034670	-0.00088755	-0.11215673	-0.30362720	0.11578731	-0.07550990	-0.16822462	-0.09459607	0.74380404	1.38568635	-0.00009351	0.00046255	-0.25994186	-0.16481356	-0.28922334	0.40461842	1.48153308	-0.00013359	0.00030875	0.80927573	0.27945776
0.71454545	0.08303925	0.28396135	-0.10486802	0.81470334	0.89458099	-0.24784929	-0.22811439	-0.41101509	-0.22031163	0.88149855	-0.27751311	0.01861229	-0.00040485	0.23953875	0.33919575	-0.15628010	0.27312778	0.01535508	0.02034670	-0.00088755	-0.09767665	-0.30571986	0.10922852	-0.08594976	-0.16770313	-0.07518915	0.71993113	1.38211312	-0.00009351	0.00046255	-0.25314518	-0.16364961	-0.28947326	0.41923865	1.48152330	-0.00013359	0.00030875	0.88149855	0.27312778
0.72446970	0.07124476	0.28737355	-0.10707182	0.82740116	0.89550431	-0.24778530	-0.16694167	-0.42017190	-0.18279944	0.95126714	-0.30174757	0.01861229	-0.00040485	0.23393193	0.34423393	-0.15645325	0.26516054	0.02509651	0.02034670	-0.00088755	-0.08178716	-0.30730268	0.10214340	-0.09430311	-0.16909934	-0.04764519	0.69511193	1.37731376	-0.00009351	0.00046255	-0.24723955	-0.16246551	-0.29082189	0.43618718	1.48151779	-0.00013359	0.00030875	0.95126714	0.26516054
0.73439394	0.06127725	0.28976633	-0.11000212	0.83975892	0.89650880	-0.24752910	-0.10728782	-0.42635533	-0.14659051	1.01605211	-0.30698261	0.01861229	-0.00040485	0.22588449	0.34806828	-0.15669335	0.25595003	0.03449276	0.02034670	-0.00088755	-0.06860235	-0.30806188	0.09356762	-0.10107878	-0.17178008	-0.01522568	0.67117079	1.37134842	-0.00009351	0.00046255	-0.24119198	-0.16177711	-0.29180528	0.45489391	1.48159284	-0.00013359	0.00030875	1.01605211	0.25595003
0.74431818	0.05478179	0.29075462	-0.11293063	0.85178829	0.89771137	-0.24715048	-0.05248064	-0.42932653	-0.11382894	1.07427322	-0.29434599	0.01861229	-0.00040485	0.21338421	0.35075789	-0.15531577	0.24588849	0.04355806	0.02034670	-0.00088755	-0.06042519	-0.30767670	0.08316866	-0.10700148	-0.17507335	0.01857847	0.64938910	1.36562571	-0.00009351	0.00046255	-0.23409908	-0.16208353	-0.29072091	0.47447546	1.48150151	-0.00013359	0.00030875	1.07427322	0.24588849
0.75424242	0.05041772	0.29034565	-0.11503590	0.86351278	0.89903971	-0.24670749	-0.00138430	-0.42931640	-0.08493200	1.12591165	-0.26741856	0.01861229	-0.00040485	0.19824940	0.35221554	-0.15182931	0.23593935	0.05238582	0.02034670	-0.00088755	-0.05586333	-0.30610198	0.07046863	-0.11225028	-0.17860934	0.05310238	0.62935486	1.36121192	-0.00009351	0.00046255	-0.22619007	-0.16345381	-0.28820771	0.49467064	1.48069936	-0.00013359	0.00030875	1.12591165	0.23593935
0.76416667	0.04679196	0.28853422	-0.11557407	0.87496168	0.90041216	-0.24625711	0.04721529	-0.42649332	-0.06013326	1.17082167	-0.23105998	0.01861229	-0.00040485	0.18223702	0.35233209	-0.14582906	0.22678187	0.06105869	0.02034670	-0.00088755	-0.05340977	-0.30321964	0.05505860	-0.11703502	-0.18206407	0.08743559	0.61071384	1.35841823	-0.00009351	0.00046255	-0.21780402	-0.16580041	-0.28531366	0.51529510	1.47909972	-0.00013359	0.00030875	1.17082167	0.22678187
0.77409091	0.04345504	0.28527106	-0.11434508	0.88617526	0.90180753	-0.24583214	0.09348357	-0.42100702	-0.03941983	1.20853689	-0.19037800	0.01861229	-0.00040485	0.16582287	0.35104552	-0.13720646	0.21846577	0.06958372	0.02034670	-0.00088755	-0.05251487	-0.29886015	0.03722005	-0.12185429	-0.18513224	0.11937106	0.59364900	1.35759358	-0.00009351	0.00046255	-0.20892328	-0.16907324	-0.28214755	0.53591983	1.47698304	-0.00013359	0.00030875	1.20853689	0.21846577
0.78401515	0.04010633	0.28064648	-0.11165997	0.89719460	0.90319728	-0.24543479	0.13778027	-0.41315877	-0.02216506	1.23889742	-0.14936472	0.01861229	-0.00040485	0.14933289	0.34838567	-0.12647881	0.21074829	0.07792673	0.02034670	-0.00088755	-0.05259675	-0.29300960	0.01770339	-0.12714972	-0.18769074	0.14696882	0.57826226	1.35894216	-0.00009351	0.00046255	-0.19959512	-0.17314586	-0.27880564	0.55636259	1.47445655	-0.00013359	0.00030875	1.23889742	0.21074829
0.79393939	0.03655579	0.27484041	-0.10810547	0.90805887	0.90454757	-0.24504478	0.18055430	-0.40328081	-0.00743863	1.26202265	-0.11022449	0.01861229	-0.00040485	0.13299150	0.34445301	-0.11449213	0.20326217	0.08606167	0.02034670	-0.00088755	-0.05308686	-0.28578750	-0.00260136	-0.13318018	-0.18979400	0.16902346	0.56454295	1.36202937	-0.00009351	0.00046255	-0.19000693	-0.17780454	-0.27574401	0.57681646	1.47176035	-0.00013359	0.00030875	1.26202265	0.20326217
0.80386364	0.03295047	0.26796602	-0.10438895	0.91880097	0.90584402	-0.24463244	0.22187596	-0.39157250	0.00565822	1.27810074	-0.07363603	0.01861229	-0.00040485	0.11663284	0.33931196	-0.10213831	0.19560675	0.09401491	0.02034670	-0.00088755	-0.05381748	-0.27727670	-0.02274826	-0.14006489	-0.19161635	0.18481780	0.55254396	1.36569923	-0.00009351	0.00046255	-0.18028044	-0.18279983	-0.27342591	0.59761371	1.46942536	-0.00013359	0.00030875	1.27810074	0.19560675
0.81378788	0.02964152	0.26008504	-0.10116150	0.92944966	0.90708771	-0.24416511	0.26148072	-0.37811365	0.01782695	1.28733120	-0.03937020	0.01861229	-0.00040485	0.09987175	0.33298415	-0.09019525	0.18749106	0.10185511	0.02034670	-0.00088755	-0.05491374	-0.26754029	-0.04181404	-0.14785644	-0.19332539	0.19401884	0.54233407	1.36836317	-0.00009351	0.00046255	-0.17041094	-0.18793917	-0.27207626	0.61901237	1.46804730	-0.00013359	0.00030875	1.28733120	0.18749106
0.82371212	0.02680591	0.25137937	-0.09883141	0.94003876	0.90827067	-0.24359925	0.29916471	-0.36299803	0.02954440	1.28994855	-0.00692891	0.01861229	-0.00040485	0.08257141	0.32555948	-0.07923724	0.17887761	0.10967475	0.02034670	-0.00088755	-0.05632143	-0.25685356	-0.05917391	-0.15648995	-0.19494662	0.19717449	0.53362943	1.36876874	-0.00009351	0.00046255	-0.16048940	-0.19317209	-0.27194139	0.64121026	1.46800795	-0.00013359	0.00030875	1.28994855	0.17887761
0.83363636	0.02440619	0.24203127	-0.09755143	0.95058932	0.90937440	-0.24290058	0.33485885	-0.34629307	0.04105616	1.28617022	0.02388646	0.01861229	-0.00040485	0.06496031	0.31712600	-0.06958791	0.17006641	0.11761934	0.02034670	-0.00088755	-0.05785750	-0.24549892	-0.07470436	-0.16559681	-0.19651344	0.19598046	0.52566286	1.36660191	-0.00009351	0.00046255	-0.15068942	-0.19841838	-0.27354429	0.66434962	1.46912091	-0.00013359	0.00030875	1.28617022	0.17006641
0.84356061	0.02247492	0.23212246	-0.09734688	0.96109422	0.91039091	-0.24207484	0.36837086	-0.32810593	0.05239567	1.27611203	0.05270349	0.01861229	-0.00040485	0.04729408	0.30778270	-0.06131905	0.16155238	0.12577630	0.02034670	-0.00088755	-0.05962114	-0.23353833	-0.08842043	-0.17471622	-0.19815139	0.19203457	0.51771594	1.36252472	-0.00009351	0.00046255	-0.14086030	-0.20353612	-0.27690407	0.68812672	1.47096968	-0.00013359	0.00030875	1.27611203	0.16155238
0.85348485	0.02097234	0.22189834	-0.09809114	0.97154502	0.91131070	-0.24114903	0.39957216	-0.30885315	0.06345155	1.25985575	0.07883359	0.01861229	-0.00040485	0.02988949	0.29785251	-0.05432935	0.15382853	0.13409824	0.02034670	-0.00088755	-0.06166979	-0.22118463	-0.10032052	-0.18357520	-0.19987620	0.18621046	0.50935796	1.35774767	-0.00009351	0.00046255	-0.13068407	-0.20853756	-0.28136376	0.71184085	1.47353639	-0.00013359	0.00030875	1.25985575	0.15382853
0.86340909	0.01963243	0.21164247	-0.09945518	0.98194972	0.91211196	-0.24014433	0.42848705	-0.28905713	0.07390226	1.23746919	0.10173366	0.01861229	-0.00040485	0.01320003	0.28765804	-0.04844533	0.14732496	0.14265287	0.02034670	-0.00088755	-0.06375193	-0.20875935	-0.11080895	-0.19185977	-0.20164268	0.17952524	0.50023202	1.35319864	-0.00009351	0.00046255	-0.12021155	-0.21343610	-0.28686265	0.73512413	1.47684206	-0.00013359	0.00030875	1.23746919	0.14732496
0.87333333	0.01819766	0.20144530	-0.10101764	0.99232337	0.91277717	-0.23908634	0.45504777	-0.26916059	0.08317195	1.20897823	0.12117174	0.01861229	-0.00040485	-0.00247534	0.27732012	-0.04345373	0.14230132	0.15162638	0.02034670	-0.00088755	-0.06562933	-0.19637953	-0.12059287	-0.19918498	-0.20349766	0.17305247	0.49015425	1.34924488	-0.00009351	0.00046255	-0.10975325	-0.21812450	-0.29382042	0.75811357	1.47994851	-0.00013359	0.00030875	1.20897823	0.14230132
0.88325758	0.01647865	0.19148360	-0.10233856	1.00268482	0.91329242	-0.23801737	0.47921658	-0.24986734	0.09055975	1.17448097	0.13716944	0.01861229	-0.00040485	-0.01702743	0.26707624	-0.03906006	0.13874278	0.16096559	0.02034670	-0.00088755	-0.06712165	-0.18421523	-0.13018611	-0.20541229	-0.20547517	0.16722325	0.47920905	1.34620656	-0.00009351	0.00046255	-0.09952209	-0.22263097	-0.30188248	0.78095893	1.48152328	-0.00013359	0.00030875	1.17448097	0.13874278
0.89318182	0.01426642	0.18208140	-0.10300442	1.01305634	0.91363865	-0.23698514	0.50113611	-0.23209356	0.09535350	1.13420165	0.15003045	0.01861229	-0.00040485	-0.03038548	0.25731044	-0.03491668	0.13641932	0.17039878	0.02034670	-0.00088755	-0.06798291	-0.17257590	-0.13988355	-0.21063254	-0.20754623	0.16201998	0.46755450	1.34445258	-0.00009351	0.00046255	-0.08964926	-0.22710285	-0.31023065	0.80358966	1.48166974	-0.00013359	0.00030875	1.13420165	0.13641932
0.90310606	0.01138528	0.17349484	-0.10276209	1.02345795	0.91379622	-0.23602392	0.52101142	-0.21655226	0.09696163	1.08843950	0.16032356	0.01861229	-0.00040485	-0.04254059	0.24831416	-0.03077205	0.13497553	0.17967508	0.02034670	-0.00088755	-0.06798459	-0.16169785	-0.14981884	-0.21500492	-0.20966712	0.15727166	0.45533775	1.34396414	-0.00009351	0.00046255	-0.08022966	-0.23161473	-0.31832587	0.82584182	1.48153220	-0.00013359	0.00030875	1.08843950	0.13497553
0.91303030	0.00786296	0.16568608	-0.10149766	1.03390584	0.91376362	-0.23515069	0.53875622	-0.20351183	0.09479232	1.03740764	0.16866081	0.01861229	-0.00040485	-0.05373755	0.24004914	-0.02647918	0.13401414	0.18869816	0.02034670	-0.00088755	-0.06715903	-0.15151645	-0.16017563	-0.21856634	-0.21185008	0.15300960	0.44258410	1.34444474	-0.00009351	0.00046255	-0.07136866	-0.23610103	-0.32613274	0.84770406	1.48155490	-0.00013359	0.00030875	1.03740764	0.13401414
0.92295455	0.00398501	0.15823773	-0.09913391	1.04441523	0.91356697	-0.23436783	0.55380086	-0.19275174	0.08812849	0.98111967	0.17548924	0.01861229	-0.00040485	-0.06452881	0.23205356	-0.02192708	0.13319559	0.19756433	0.02034670	-0.00088755	-0.06589055	-0.14158854	-0.17139324	-0.22110702	-0.21420336	0.14976813	0.42909787	1.34577831	-0.00009351	0.00046255	-0.06324653	-0.24036675	-0.33416506	0.86933805	1.48157608	-0.00013359	0.00030875	0.98111967	0.13319559
0.93287879	0.00011278	0.15084719	-0.09581217	1.05499893	0.91323575	-0.23365430	0.56557394	-0.18385097	0.07676976	0.91966875	0.18103421	0.01861229	-0.00040485	-0.07549441	0.22397986	-0.01719494	0.13222318	0.20625977	0.02034670	-0.00088755	-0.06462121	-0.13163547	-0.18344821	-0.22257723	-0.21673451	0.14777157	0.41483198	1.34776608	-0.00009351	0.00046255	-0.05578944	-0.24435754	-0.34243730	0.89061584	1.48156676	-0.00013359	0.00030875	0.91966875	0.13222318
0.94280303	-0.00334100	0.14339207	-0.09189554	1.06566982	0.91279947	-0.23296679	0.57356978	-0.17621753	0.06120391	0.85332374	0.18526378	0.01861229	-0.00040485	-0.08719892	0.21566472	-0.01255450	0.13085347	0.21462147	0.02034670	-0.00088755	-0.06380310	-0.12160723	-0.19571007	-0.22320350	-0.21930212	0.14659251	0.40006009	1.34994444	-0.00009351	0.00046255	-0.04861379	-0.24820467	-0.35022652	0.91109122	1.48156847	-0.00013359	0.00030875	0.85332374	0.13085347
0.95272727	-0.00611373	0.13561268	-0.08767907	1.07644614	0.91228046	-0.23225687	0.57739389	-0.16897373	0.04215365	0.78247294	0.18790872	0.01861229	-0.00040485	-0.09995472	0.20676316	-0.00829325	0.12909408	0.22267577	0.02034670	-0.00088755	-0.06372063	-0.11130480	-0.20770592	-0.22317916	-0.22178309	0.14566637	0.38514611	1.35189401	-0.00009351	0.00046255	-0.04148488	-0.25194957	-0.35716805	0.93046780	1.48157219	-0.00013359	0.00030875	0.78247294	0.12909408
0.96265152	-0.00812538	0.12724444	-0.08335356	1.08735129	0.91168929	-0.23147965	0.57692349	-0.16117972	0.02065844	0.70775570	0.18864556	0.01861229	-0.00040485	-0.11378152	0.19690696	-0.00464730	0.12715303	0.23051814	0.02034670	-0.00088755	-0.06443038	-0.10051148	-0.21912118	-0.22268978	-0.22407082	0.14436560	0.37048239	1.35329586	-0.00009351	0.00046255	-0.03433052	-0.25557645	-0.36314818	0.94860563	1.48157306	-0.00013359	0.00030875	0.70775570	0.12715303
0.97257576	-0.00888384	0.11785376	-0.07900864	1.09841752	0.91107604	-0.23059770	0.57154895	-0.15183443	-0.00204473	0.62987257	0.18727517	0.01861229	-0.00040485	-0.12920144	0.18557627	-0.00165701	0.12516564	0.23814620	0.02034670	-0.00088755	-0.06646517	-0.08883659	-0.22978953	-0.22181643	-0.22611175	0.14239407	0.35633003	1.35413730	-0.00009351	0.00046255	-0.02708935	-0.25907511	-0.36802877	0.96546752	1.48157453	-0.00013359	0.00030875	0.62987257	0.12516564
0.98250000	-0.00804134	0.10716281	-0.07462932	1.10968069	0.91048075	-0.22958732	0.56097797	-0.14023008	-0.02437859	0.54975346	0.18380823	0.01861229	-0.00040485	-0.14651614	0.17243460	0.00074308	0.12336168	0.24556064	0.02034670	-0.00088755	-0.07015832	-0.07604414	-0.23966427	-0.22065587	-0.22786059	0.13955873	0.34288242	1.35458385	-0.00009351	0.00046255	-0.01981675	-0.26244365	-0.37171534	0.98111420	1.48157633	-0.00013359	0.00030875	0.54975346	0.12336168
0.99242424	-0.00576042	0.09537885	-0.07015789	1.12117542	0.90989929	-0.22844021	0.54580859	-0.12625878	-0.04424668	0.46869505	0.17838195	0.01861229	-0.00040485	-0.16533458	0.15766934	0.00253910	0.12212642	0.25276253	0.02034670	-0.00088755	-0.07517381	-0.06238346	-0.24853725	-0.21955987	-0.22918933	0.13517615	0.33051822	1.35456679	-0.00009351	0.00046255	-0.01261092	-0.26574098	-0.37390869	0.99557960	1.48157789	-0.00013359	0.00030875	0.46869505	0.12212642
1.00234848	-0.00163316	0.08250888	-0.06542062	1.13294535	0.90938171	-0.22716817	0.52586315	-0.10998203	-0.05979917	0.38789264	0.17105996	0.01861229	-0.00040485	-0.18603295	0.14129018	0.00375509	0.12164781	0.25976887	0.02034670	-0.00088755	-0.08184494	-0.04786665	-0.25635784	-0.21878112	-0.23005406	0.12882371	0.31957079	1.35408651	-0.00009351	0.00046255	-0.00550510	-0.26897446	-0.37436558	1.00897626	1.48157947	-0.00013359	0.00030875	0.38789264	0.12164781
1.01227273	0.00465589	0.06876873	-0.06020167	1.14502636	0.90896942	-0.22580763	0.50127547	-0.09206341	-0.06968074	0.30908745	0.16195656	0.01861229	-0.00040485	-0.20888057	0.12356419	0.00443019	0.12210587	0.26660146	0.02034670	-0.00088755	-0.09040984	-0.03269307	-0.26330532	-0.21842265	-0.23050429	0.12074910	0.31013491	1.35334401	-0.00009351	0.00046255	0.00137763	-0.27210554	-0.37307621	1.02146970	1.48158107	-0.00013359	0.00030875	0.30908745	0.12210587
1.02219697	0.01254926	0.05500788	-0.05438981	1.15742375	0.90862463	-0.22441145	0.47377622	-0.07400744	-0.07334883	0.23516262	0.15148305	0.01861229	-0.00040485	-0.23300394	0.10545266	0.00447187	0.12385629	0.27319936	0.02034670	-0.00088755	-0.10008813	-0.01767246	-0.26949138	-0.21861531	-0.23059262	0.11141921	0.30218554	1.35247123	-0.00009351	0.00046255	0.00783238	-0.27509854	-0.37007501	1.03308706	1.48158266	-0.00013359	0.00030875	0.23516262	0.12385629
1.03212121	0.02185456	0.04156538	-0.04790085	1.17012613	0.90834730	-0.22303619	0.44469353	-0.05687106	-0.07234044	0.16922690	0.14037567	0.01861229	-0.00040485	-0.25800889	0.08736128	0.00346044	0.12711340	0.27955365	0.02034670	-0.00088755	-0.11060110	-0.00299485	-0.27507764	-0.21925580	-0.23050488	0.10155568	0.29559054	1.35149524	-0.00009351	0.00046255	0.01375441	-0.27778683	-0.36554476	1.04378854	1.48158424	-0.00013359	0.00030875	0.16922690	0.12711340
1.04204545	0.03161289	0.02897560	-0.04105086	1.18306864	0.90807035	-0.22171057	0.41687938	-0.04161428	-0.07034779	0.11551014	0.13056455	0.01861229	-0.00040485	-0.28256572	0.07000085	0.00100942	0.13215461	0.28551063	0.02034670	-0.00088755	-0.12094825	0.01092793	-0.28018966	-0.21994732	-0.23047989	0.09251362	0.28989456	1.35037587	-0.00009351	0.00046255	0.01888377	-0.27995775	-0.36003857	1.05348297	1.48158582	-0.00013359	0.00030875	0.11551014	0.13215461
1.05196970	0.03876113	0.01905575	-0.03491211	1.19611929	0.90754546	-0.22040576	0.39662301	-0.02995927	-0.07130645	0.07963658	0.12507606	0.01861229	-0.00040485	-0.30279079	0.05567464	-0.00252452	0.13947000	0.29035676	0.02034670	-0.00088755	-0.12784522	0.02217687	-0.28456463	-0.22029381	-0.23058249	0.08582830	0.28437989	1.34915706	-0.00009351	0.00046255	0.02267520	-0.28152170	-0.35431722	1.06186644	1.48158739	-0.00013359	0.00030875	0.07963658	0.13947000
1.06189394	0.04277936	0.01151717	-0.03004857	1.20925115	0.90676430	-0.21908051	0.38510560	-0.02130593	-0.07758162	0.06290079	0.12431816	0.01861229	-0.00040485	-0.31818235	0.04426726	-0.00716452	0.14892084	0.29363021	0.02034670	-0.00088755	-0.13083360	0.03104529	-0.28792552	-0.22003838	-0.23093175	0.08165710	0.27889773	1.34796797	-0.00009351	0.00046255	0.02500050	-0.28225446	-0.34875877	1.06871085	1.48158896	-0.00013359	0.00030875	0.06290079	0.14892084
1.07181818	0.04739495	0.00300643	-0.02583624	1.22258932	0.90612473	-0.21773522	0.37572480	-0.01215103	-0.09018607	0.06090291	0.12519706	0.01861229	-0.00040485	-0.33367676	0.03199408	-0.01397346	0.15954889	0.29546639	0.02034670	-0.00088755	-0.13411964	0.04118835	-0.29026560	-0.21911742	-0.23181974	0.07863957	0.27412155	1.34681462	-0.00009351	0.00046255	0.02638201	-0.28171671	-0.34319986	1.07412142	1.48159053	-0.00013359	0.00030875	0.06090291	0.15954889
1.08174242	0.05417849	-0.00779537	-0.02193515	1.23618859	0.90578173	-0.21637949	0.36552892	-0.00120503	-0.10937173	0.07042401	0.12512511	0.01861229	-0.00040485	-0.35142002	0.01731768	-0.02318021	0.17082654	0.29541448	0.02034670	-0.00088755	-0.13941393	0.05403092	-0.29143632	-0.21774216	-0.23329646	0.07575266	0.27055247	1.34567686	-0.00009351	0.00046255	0.02706316	-0.27971646	-0.33749180	1.07813424	1.48159210	-0.00013359	0.00030875	0.07042401	0.17082654
1.09166667	0.06114019	-0.01941359	-0.01864146	1.25001467	0.90558184	-0.21498676	0.35699674	0.01001636	-0.13371675	0.08975032	0.12228494	0.01861229	-0.00040485	-0.36891706	0.00184294	-0.03387012	0.18313623	0.29261080	0.02034670	-0.00088755	-0.14437463	0.06787335	-0.29135644	-0.21622024	-0.23512541	0.07287850	0.26815738	1.34463747	-0.00009351	0.00046255	0.02661449	-0.27640764	-0.33180258	1.08061430	1.48159366	-0.00013359	0.00030875	0.08975032	0.18313623
1.10159091	0.06697911	-0.03097503	-0.01602669	1.26406545	0.90544012	-0.21351604	0.35062267	0.02076133	-0.16004795	0.11466944	0.11387423	0.01861229	-0.00040485	-0.38440146	-0.01359386	-0.04533344	0.19703412	0.28674067	0.02034670	-0.00088755	-0.14744104	0.08162668	-0.29034861	-0.21467182	-0.23709815	0.07004756	0.26684418	1.34377555	-0.00009351	0.00046255	0.02455642	-0.27198458	-0.32642093	1.08152759	1.48159522	-0.00013359	0.00030875	0.11466944	0.19703412
1.11151515	0.07189290	-0.04300725	-0.01390151	1.27835015	0.90540412	-0.21193041	0.34457869	0.03195659	-0.18572143	0.14001508	0.09730565	0.01861229	-0.00040485	-0.39782652	-0.02979968	-0.05783699	0.21306240	0.27785761	0.02034670	-0.00088755	-0.14883069	0.09576927	-0.28860807	-0.21312332	-0.23911114	0.06699821	0.26671426	1.34310363	-0.00009351	0.00046255	0.02088926	-0.26655266	-0.32136121	1.08073773	1.48159678	-0.00013359	0.00030875	0.14001508	0.21306240
1.12143939	0.07661118	-0.05673363	-0.01202261	1.29285265	0.90556604	-0.21020033	0.33686085	0.04543230	-0.20958507	0.16190807	0.07174888	0.01861229	-0.00040485	-0.40963937	-0.04839414	-0.07254643	0.23193164	0.26601131	0.02034670	-0.00088755	-0.14945559	0.11160531	-0.28588779	-0.21168795	-0.24110648	0.06302494	0.26809832	1.34261190	-0.00009351	0.00046255	0.01609295	-0.26015814	-0.31622508	1.07784266	1.48159833	-0.00013359	0.00030875	0.16190807	0.23193164
1.13136364	0.08159572	-0.07229620	-0.01040013	1.30752104	0.90598883	-0.20830110	0.32645219	0.06183733	-0.22993373	0.17855620	0.03989948	0.01861229	-0.00040485	-0.41992923	-0.06965863	-0.08951536	0.25426641	0.25094914	0.02034670	-0.00088755	-0.15004074	0.12922855	-0.28200653	-0.21027586	-0.24292610	0.05793207	0.27113016	1.34234614	-0.00009351	0.00046255	0.01056350	-0.25297235	-0.31092036	1.07264026	1.48159989	-0.00013359	0.00030875	0.17855620	0.25426641
1.14128788	0.08678121	-0.08840056	-0.00930860	1.32226229	0.90667804	-0.20622570	0.31389472	0.07994882	-0.24477776	0.19094595	0.00780789	0.01861229	-0.00040485	-0.42810101	-0.09213506	-0.10737033	0.28062139	0.23209060	0.02034670	-0.00088755	-0.15080787	0.14714200	-0.27708059	-0.20848878	-0.24435677	0.05263106	0.27553059	1.34237719	-0.00009351	0.00046255	0.00440537	-0.24528594	-0.30585766	1.06526745	1.48160144	-0.00013359	0.00030875	0.19094595	0.28062139
1.15121212	0.09244934	-0.10452471	-0.00874908	1.33697913	0.90765831	-0.20400822	0.29980644	0.09891946	-0.25420184	0.20168778	-0.01879361	0.01861229	-0.00040485	-0.43384477	-0.11534878	-0.12570770	0.31180749	0.20896856	0.02034670	-0.00088755	-0.15232740	0.16480506	-0.27106165	-0.20611019	-0.24536967	0.04775815	0.28121850	1.34268413	-0.00009351	0.00046255	-0.00205413	-0.23722519	-0.30104282	1.05568161	1.48160299	-0.00013359	0.00030875	0.20168778	0.31180749
1.16113636	0.09907205	-0.12086805	-0.00853608	1.35158844	0.90896525	-0.20169978	0.28444671	0.11856034	-0.25914758	0.21322599	-0.03639726	0.01861229	-0.00040485	-0.43708728	-0.13970307	-0.14461622	0.34868822	0.18128013	0.02034670	-0.00088755	-0.15531285	0.18252292	-0.26369861	-0.20317942	-0.24603416	0.04307778	0.28844173	1.34318404	-0.00009351	0.00046255	-0.00833060	-0.22878595	-0.29612460	1.04365247	1.48160454	-0.00013359	0.00030875	0.21322599	0.34868822
1.17106061	0.10658445	-0.13703408	-0.00859837	1.36601661	0.91058546	-0.19932928	0.26837221	0.13824048	-0.25973535	0.22699847	-0.04350206	0.01861229	-0.00040485	-0.43725629	-0.16484777	-0.16288210	0.39181890	0.14873059	0.02034670	-0.00088755	-0.15980971	0.19985969	-0.25505946	-0.19960277	-0.24632488	0.03856625	0.29720398	1.34382103	-0.00009351	0.00046255	-0.01430611	-0.22004715	-0.29118590	1.02918100	1.48160609	-0.00013359	0.00030875	0.22699847	0.39181890
1.18098485	0.11433875	-0.15250979	-0.00893952	1.38020670	0.91245591	-0.19690683	0.25237346	0.15739877	-0.25613042	0.24309753	-0.04096258	0.01861229	-0.00040485	-0.43318511	-0.19025347	-0.17873098	0.44159475	0.11112349	0.02034670	-0.00088755	-0.16514003	0.21621158	-0.24532072	-0.19535676	-0.24615980	0.03401161	0.30743282	1.34453272	-0.00009351	0.00046255	-0.02003449	-0.21113391	-0.28632037	1.01229679	1.48160764	-0.00013359	0.00030875	0.24309753	0.44159475
1.19090909	0.12088703	-0.16684449	-0.00983310	1.39410607	0.91445087	-0.19444579	0.23783596	0.17560490	-0.24889466	0.26063138	-0.03142753	0.01861229	-0.00040485	-0.42278126	-0.21531682	-0.19056611	0.49844162	0.06837927	0.02034670	-0.00088755	-0.16977603	0.23114503	-0.23423246	-0.19083752	-0.24547304	0.02785895	0.31952060	1.34523006	-0.00009351	0.00046255	-0.02534904	-0.20211560	-0.28098159	0.99271778	1.48160918	-0.00013359	0.00030875	0.26063138	0.49844162
1.20083333	0.12460129	-0.17939012	-0.01144017	1.40767125	0.91642673	-0.19198108	0.22613307	0.19217181	-0.23902765	0.27807658	-0.01801718	0.01861229	-0.00040485	-0.40379107	-0.23907282	-0.19649128	0.56230636	0.02052038	0.02034670	-0.00088755	-0.17193868	0.24407588	-0.22196568	-0.18634190	-0.24423121	0.01902490	0.33372924	1.34579328	-0.00009351	0.00046255	-0.03019800	-0.19306750	-0.27483107	0.97031921	1.48161073	-0.00013359	0.00030875	0.27807658	0.56230636
1.21075758	0.12501400	-0.19002165	-0.01307355	1.42090160	0.91832044	-0.18957292	0.21701783	0.20691205	-0.22847939	0.29322179	-0.00357691	0.01861229	-0.00040485	-0.37554477	-0.26124127	-0.19490236	0.63206560	-0.03236810	0.02034670	-0.00088755	-0.17087102	0.25494826	-0.20968565	-0.18179030	-0.24245817	0.00842882	0.34976597	1.34592060	-0.00009351	0.00046255	-0.03480506	-0.18416281	-0.26812736	0.94544468	1.48161228	-0.00013359	0.00030875	0.29322179	0.63206560
1.22068182	0.12281415	-0.19931546	-0.01364307	1.43382098	0.92015098	-0.18729536	0.20896606	0.22032130	-0.21962442	0.30398336	0.00999511	0.01861229	-0.00040485	-0.33906742	-0.28231578	-0.18564042	0.70566441	-0.08999337	0.02034670	-0.00088755	-0.16701134	0.26445368	-0.19845802	-0.17714365	-0.24030968	-0.00239838	0.36741677	1.34516570	-0.00009351	0.00046255	-0.03921484	-0.17560492	-0.26090236	0.91851759	1.48161382	-0.00013359	0.00030875	0.30398336	0.70566441
1.23060606	0.11906730	-0.20766065	-0.01244916	1.44644156	0.92196274	-0.18521072	0.20056023	0.23262274	-0.21415707	0.30949708	0.02211205	0.01861229	-0.00040485	-0.29621750	-0.30229028	-0.16959382	0.78045715	-0.15097815	0.02034670	-0.00088755	-0.16136596	0.27305097	-0.18877455	-0.17237086	-0.23804627	-0.01206420	0.38660396	1.34337054	-0.00009351	0.00046255	-0.04328858	-0.16756494	-0.25309252	0.89000703	1.48161537	-0.00013359	0.00030875	0.30949708	0.78045715
1.24053030	0.11476878	-0.21501136	-0.00923543	1.45876814	0.92379577	-0.18335250	0.19099451	0.24359007	-0.21278356	0.31014921	0.03304655	0.01861229	-0.00040485	-0.24904330	-0.32046925	-0.14785146	0.85377596	-0.21177628	0.02034670	-0.00088755	-0.15496643	0.28065584	-0.18072322	-0.16746974	-0.23582600	-0.01997904	0.40738091	1.34069261	-0.00009351	0.00046255	-0.04684594	-0.16023297	-0.24466701	0.86032274	1.48161691	-0.00013359	0.00030875	0.31014921	0.85377596
1.25045455	0.11084442	-0.22119289	-0.00393914	1.47079764	0.92569570	-0.18174386	0.17964939	0.25298357	-0.21544958	0.30687507	0.04334178	0.01861229	-0.00040485	-0.19930528	-0.33593950	-0.12140635	0.92380781	-0.26641922	0.02034670	-0.00088755	-0.14883528	0.28702439	-0.17385491	-0.16255378	-0.23363237	-0.02688767	0.43029174	1.33709461	-0.00009351	0.00046255	-0.04953267	-0.15380529	-0.23517671	0.82932004	1.48161846	-0.00013359	0.00030875	0.30687507	0.92380781
1.26037879	0.10832029	-0.22593274	0.00324526	1.48253141	0.92772242	-0.18038581	0.16593402	0.26053336	-0.22141274	0.30083659	0.05340117	0.01861229	-0.00040485	-0.14926202	-0.34776517	-0.09164790	0.98907362	-0.30832808	0.02034670	-0.00088755	-0.14422232	0.29181403	-0.16776324	-0.15744463	-0.23149746	-0.03291943	0.45520551	1.33272357	-0.00009351	0.00046255	-0.05113884	-0.14841094	-0.22465551	0.79722072	1.48162000	-0.00013359	0.00030875	0.30083659	0.98907362
1.27030303	0.10784025	-0.22903581	0.01170788	1.49399573	0.92991270	-0.17923408	0.15007555	0.26601431	-0.22952502	0.29349771	0.06331269	0.01861229	-0.00040485	-0.10162947	-0.35542161	-0.06065362	1.04801995	-0.33343108	0.02034670	-0.00088755	-0.14202516	0.29478196	-0.16262116	-0.15168061	-0.22962978	-0.03677159	0.48051063	1.32860424	-0.00009351	0.00046255	-0.05194190	-0.14405493	-0.21427758	0.76544692	1.48162155	-0.00013359	0.00030875	0.29349771	1.04801995
1.28022727	0.10984917	-0.23034729	0.02164476	1.50515708	0.93231679	-0.17832541	0.13057048	0.26968617	-0.23889984	0.28447098	0.07330975	0.01861229	-0.00040485	-0.05529267	-0.35797290	-0.02723972	1.10313068	-0.33924173	0.02034670	-0.00088755	-0.14283352	0.29578598	-0.15812870	-0.14432113	-0.22813663	-0.03795693	0.50683259	1.32553577	-0.00009351	0.00046255	-0.05206551	-0.14051640	-0.20395613	0.73232937	1.48162309	-0.00013359	0.00030875	0.28447098	1.10313068
1.29015152	0.11442902	-0.22983451	0.03304394	1.51606077	0.93494420	-0.17766593	0.10610670	0.27209918	-0.24799831	0.27236262	0.08283437	0.01861229	-0.00040485	-0.01025575	-0.35476675	0.00927079	1.15541395	-0.32711188	0.02034670	-0.00088755	-0.14678101	0.29488540	-0.15357314	-0.13523497	-0.22695358	-0.03766661	0.53478207	1.32327750	-0.00009351	0.00046255	-0.05125836	-0.13767689	-0.19280227	0.69640173	1.48162464	-0.00013359	0.00030875	0.27236262	1.15541395
1.30007576	0.11895551	-0.22859916	0.04174615	1.52715812	0.93761700	-0.17690639	0.08599959	0.27340816	-0.25372730	0.26169540	0.08904309	0.01861229	-0.00040485	0.02051458	-0.34967065	0.03649854	1.19088300	-0.31104748	0.02034670	-0.00088755	-0.15113022	0.29337464	-0.15006753	-0.12807257	-0.22621091	-0.03722305	0.55535652	1.32183519	-0.00009351	0.00046255	-0.05011058	-0.13601062	-0.18420536	0.66940255	1.48162619	-0.00013359	0.00030875	0.26169540	1.19088300
